Name,Latitude,Longitude,Email,Address,Type
"Radisson Collection Hotel, Berlin",52.5195799,13.4027302,N/A,"Karl-Liebknecht-Str. 3, 10178 Berlin, Germany",gym
Park Inn by Radisson Berlin Alexanderplatz,52.523125,13.4127656,N/A,"Alexanderpl. 7, 10178 Berlin, Germany",lodging
Generator Berlin Mitte,52.525198,13.3913822,N/A,"Oranienburger Str. 65, 10117 Berlin, Germany",cafe
Leonardo Royal Hotel Berlin Alexanderplatz,52.52739139999999,13.4233692,N/A,"Otto-Braun-Straße 90, 10249 Berlin, Germany",lodging
Grill Royal,52.5226847,13.3887989,N/A,"Friedrichstraße 105b, 10117 Berlin, Germany",bar
Zur letzten Instanz,52.5173692,13.4137999,N/A,"Waisenstraße 14-16, 10179 Berlin, Germany",bar
Cookies Cream,52.5157146,13.3877824,N/A,"Behrenstraße 55, 10117 Berlin, Germany",bar
Zur Gerichtslaube,52.5170542,13.4063319,N/A,"Poststraße 28, 10178 Berlin, Germany",bar
Brauhaus GEORGBRAEU,52.5165548,13.4055038,N/A,"Spreeufer 4, 10178 Berlin, Germany",restaurant
Restaurant Maximilians Berlin,52.5114055,13.3892688,N/A,"Friedrichstraße 185-190, 10117 Berlin, Germany",bar
The Sixties Diner,52.5237811,13.3993282,N/A,"Oranienburger Str. 11, 10178 Berlin, Germany",restaurant
Velvet52 Café & Bar,52.52592749999999,13.388256,N/A,"Oranienburger Str. 52, 10117 Berlin, Germany",cafe
"Das Lemke - Biergarten, Brauerei, Deutsche Küche",52.5232756,13.404724,N/A,"S-Bahnbogen 143, Dircksenstraße, 10178 Berlin, Germany",bar
Fleischerei,52.5297856,13.4105204,N/A,"Schönhauser Allee 8, 10119 Berlin, Germany",restaurant
Belushi's Berlin (Alexanderplatz),52.52690250000001,13.4106901,N/A,"Rosa-Luxemburg-Straße 41, 10178 Berlin, Germany",bar
Tausend,52.5207369,13.3844524,N/A,"Schiffbauerdamm 11, 10117 Berlin, Germany",bar
Kilkenny Irish Pub,52.522491,13.401438,N/A,"Am Zwirngraben 17-20, 10178 Berlin, Germany",bar
Berliner Republik,52.52129249999999,13.3855646,N/A,"Schiffbauerdamm 8, 10117 Berlin, Germany",bar
Mokka Mitte Bar,52.5222181,13.3984601,N/A,"James Simon Park, Stadtbahnbogen 159/160, 10178 Berlin, Germany",bar
Red Salon (Roter Salon),52.5271099,13.4115815,N/A,"Rosa-Luxemburg-Platz, 10178 Berlin, Germany",night_club
Schwarzwaldstuben,52.52766039999999,13.3930615,N/A,"Tucholskystraße 48, 10117 Berlin, Germany",bar
Hafenbar Berlin,52.52175940000001,13.4073919,N/A,"Karl-Liebknecht-Str. 11, 10178 Berlin, Germany",bar
GRAND BAR - Restaurant | Bar | Lounge in Berlin-Mitte,52.5250481,13.3931836,N/A,"Oranienburger Str. 33, 10117 Berlin, Germany",restaurant
Carambar,52.52038750000001,13.41214,N/A,"Rathausstraße 1, 10178 Berlin, Germany",restaurant
Kopps,52.5287904,13.3974753,N/A,"Linienstraße 94, 10115 Berlin, Germany",bar
Ristorante Piazza Rossa,52.5190156,13.4092823,N/A,"Rathausstraße 13, 10178 Berlin, Germany",bar
Andy's Diner & Bar,52.519854,13.4029554,N/A,"Karl-Liebknecht-Str. 5, 10178 Berlin, Germany",bar
Newton Bar,52.5129473,13.3911015,N/A,"Charlottenstraße 57, 10117 Berlin, Germany",bar
Oxymoron,52.5242225,13.4018132,N/A,"Rosenthaler Str. 40-41, 10178 Berlin, Germany",bar
House of Weekend,52.52293520000001,13.4163463,N/A,"Alexanderstraße 7, 10178 Berlin, Germany",night_club
Schokoladen,52.52977689999999,13.3971137,N/A,"Ackerstraße 169, 10115 Berlin, Germany",bar
Gugelhof,52.53545010000001,13.4166599,N/A,"Knaackstraße 37, 10435 Berlin, Germany",restaurant
Rutz,52.5282224,13.3862349,N/A,"Chausseestraße 8, 10115 Berlin, Germany",bar
Reingold,52.52865,13.3881556,N/A,"Novalisstraße 11, 10115 Berlin, Germany",bar
Aapka,52.5339958,13.4047851,N/A,"Kastanienallee 50, 10119 Berlin, Germany",bar
Restaurant Keyser Soze,52.5262471,13.3932925,N/A,"Tucholskystraße 33, 10117 Berlin, Germany",restaurant
Absinthdepot Berlin,52.5253564,13.4050257,N/A,"Weinmeisterstraße 4, 10178 Berlin, Germany",liquor_store
Z-Bar,52.5294848,13.3956931,N/A,"Bergstraße 2, 10115 Berlin, Germany",bar
Upside Down Bar & Restaurant,52.5124341,13.4098683,N/A,"Wallstraße 70, 10179 Berlin, Germany",restaurant
Strandbad Mitte,52.5273205,13.3966552,N/A,"Kleine Hamburger Str. 16, 10117 Berlin, Germany",restaurant
Boese Buben Bar Gaststätte,52.522313,13.383938,N/A,"Marienstraße 18, 10117 Berlin, Germany",cafe
COOP Anti-War cafe bar,52.5240306,13.4074139,N/A,"Rochstraße 3, 10178 Berlin, Germany",cafe
Mein Haus am See,52.5299428,13.4007965,N/A,"Brunnenstraße 197-198, 10119 Berlin, Germany",bar
Berliner Fernsehturm,52.520815,13.409419,N/A,"Panoramastraße 1A, 10178 Berlin, Germany",tourist_attraction
Strike Lanes Lounge Bowling,52.518512,13.416302,N/A,"3. OG Alexa, Grunerstraße 20, 10179 Berlin, Germany",bowling_alley
Neue Odessa Bar,52.5297031,13.4057467,N/A,"Torstraße 89, 10119 Berlin, Germany",bar
8MM,52.53121799999999,13.411524,N/A,"Schönhauser Allee 177b, 10119 Berlin, Germany",bar
Muret La Barba,52.52751920000001,13.4034784,N/A,"Rosenthaler Str. 61, 10119 Berlin, Germany",liquor_store
Sportsbar Tor 133,52.52973240000001,13.3997225,N/A,"Torstraße 133, 10119 Berlin, Germany",casino
Restaurant SIMON,52.52757299999999,13.3993386,N/A,"Auguststraße 53, 10119 Berlin, Germany",bar
Marinehaus - Restaurant und Kneipe,52.5141105,13.415968,N/A,"Märkisches Ufer 48-50, 10179 Berlin, Germany",bar
FC Magnet Bar,52.5329778,13.3999833,N/A,"Veteranenstraße 26, 10119 Berlin, Germany",bar
Pantry,52.526615,13.3868762,N/A,"Friedrichstraße 120, 10117 Berlin, Germany",restaurant
Cancún,52.51913859999999,13.4095071,N/A,"Rathausstraße 5-13, 10178 Berlin, Germany",night_club
Windhorst,52.51844319999999,13.3865204,N/A,"Dorotheenstraße 65, 10117 Berlin, Germany",bar
Cleopatra - Shisha Bar,52.5286666,13.3857504,N/A,"Chausseestraße 11, 10115 Berlin, Germany",bar
PANE E VINO,52.52329100000001,13.387356,N/A,"FRIEDRICHSTRAßE 134 Ecke, Ziegelstraße, 10117 Berlin, Germany",restaurant
Republic Berlin,52.5109542,13.417325,N/A,"Köpenicker Str. 74, 10179 Berlin, Germany",bar
Jacques’ Wein-Depot Berlin-Mitte,52.5277976,13.3862861,N/A,"Chausseestraße 128/129, 10115 Berlin, Germany",liquor_store
Treffpunkt Berlin,52.5179165,13.3882839,N/A,"Mittelstraße 55, 10117 Berlin, Germany",bar
"Radisson Collection Hotel, Berlin",52.5195799,13.4027302,N/A,"Karl-Liebknecht-Str. 3, 10178 Berlin, Germany",bar
Park Inn by Radisson Berlin Alexanderplatz,52.523125,13.4127656,N/A,"Alexanderpl. 7, 10178 Berlin, Germany",bar
Cosmo Hotel Berlin Mitte,52.5117038,13.4013856,N/A,"Spittelmarkt 13, 10117 Berlin, Germany",lodging
Park Plaza Wallstreet Berlin Mitte,52.51150670000001,13.4077502,N/A,"Wallstraße 23-24, 10179 Berlin, Germany",lodging
Leonardo Royal Hotel Berlin Alexanderplatz,52.52739139999999,13.4233692,N/A,"Otto-Braun-Straße 90, 10249 Berlin, Germany",bar
Grill Royal,52.5226847,13.3887989,N/A,"Friedrichstraße 105b, 10117 Berlin, Germany",bar
Zur letzten Instanz,52.5173692,13.4137999,N/A,"Waisenstraße 14-16, 10179 Berlin, Germany",bar
Cookies Cream,52.5157146,13.3877824,N/A,"Behrenstraße 55, 10117 Berlin, Germany",bar
Hofbräu Wirtshaus Berlin,52.52456240000001,13.4138463,N/A,"Karl-Liebknecht-Str. 30, 10178 Berlin, Germany",restaurant
Borchardt,52.5150087,13.3904324,N/A,"Franz. Str. 47, 10117 Berlin, Germany",restaurant
Augustiner am Gendarmenmarkt,52.5138177,13.3910381,N/A,"Charlottenstraße 55, 10117 Berlin, Germany",restaurant
Spreegold Mitte,52.5231605,13.4092636,N/A,"Rosa-Luxemburg-Straße 2, 10178 Berlin, Germany",restaurant
Zur Gerichtslaube,52.5170542,13.4063319,N/A,"Poststraße 28, 10178 Berlin, Germany",bar
Monsieur Vuong,52.5266538,13.4079523,N/A,"Alte Schönhauser Str. 46, 10119 Berlin, Germany",restaurant
Brauhaus GEORGBRAEU,52.5165548,13.4055038,N/A,"Spreeufer 4, 10178 Berlin, Germany",restaurant
Bocca di Bacco,52.5151203,13.3889483,N/A,"Friedrichstraße 167-168, 10117 Berlin, Germany",restaurant
Restaurant Maximilians Berlin,52.5114055,13.3892688,N/A,"Friedrichstraße 185-190, 10117 Berlin, Germany",bar
EINSTEIN Unter den Linden,52.51725,13.3860628,N/A,"Unter den Linden 42, 10117 Berlin, Germany",restaurant
The Sixties Diner,52.5237811,13.3993282,N/A,"Oranienburger Str. 11, 10178 Berlin, Germany",restaurant
Ishin Mittelstraße,52.51803589999999,13.3867836,N/A,"Mittelstraße 24, 10117 Berlin, Germany",restaurant
"Das Lemke - Biergarten, Brauerei, Deutsche Küche",52.5232756,13.404724,N/A,"S-Bahnbogen 143, Dircksenstraße, 10178 Berlin, Germany",bar
BLOCK HOUSE Am Alexanderplatz,52.52064610000001,13.4052203,N/A,"Karl-Liebknecht-Str. 7, 10178 Berlin, Germany",meal_takeaway
Restaurant Nolle,52.5199975,13.3890768,N/A,"Georgenstrasse, S, Bahnbogen 203, 10117 Berlin, Germany",restaurant
Ming Dynastie Jannowitzbrücke Berlin,52.51356489999999,13.4180546,N/A,"Brückenstraße 6, 10179 Berlin, Germany",meal_takeaway
Fleischerei,52.5297856,13.4105204,N/A,"Schönhauser Allee 8, 10119 Berlin, Germany",restaurant
Belushi's Berlin (Alexanderplatz),52.52690250000001,13.4106901,N/A,"Rosa-Luxemburg-Straße 41, 10178 Berlin, Germany",bar
Brechts Steakhaus,52.52150649999999,13.3859209,N/A,"Schiffbauerdamm 7, 10117 Berlin, Germany",restaurant
Mutter Hoppe,52.5177056,13.4062088,N/A,"Rathausstraße 21, 10178 Berlin, Germany",restaurant
Tausend,52.5207369,13.3844524,N/A,"Schiffbauerdamm 11, 10117 Berlin, Germany",bar
YOSOY TAPAS BERLIN,52.52443339999999,13.4027616,N/A,"Rosenthaler Str. 37, 10178 Berlin, Germany",restaurant
Restaurant Via Nova II,52.51981,13.3922245,N/A,"Universitätsstraße 2, 10117 Berlin, Germany",restaurant
Kilkenny Irish Pub,52.522491,13.401438,N/A,"Am Zwirngraben 17-20, 10178 Berlin, Germany",bar
Brasserie Am Gendarmenmarkt,52.5134791,13.3940216,N/A,"Taubenstraße 30, 10117 Berlin, Germany",restaurant
Aposto,52.5227072,13.3998395,N/A,"Monbijoupl. 12, 10178 Berlin, Germany",restaurant
Berliner Republik,52.52129249999999,13.3855646,N/A,"Schiffbauerdamm 8, 10117 Berlin, Germany",bar
Café Datscha Mitte,52.5305237,13.401652,N/A,"Weinbergsweg 25, 10119 Berlin, Germany",restaurant
Dolores Mitte,52.5238317,13.4091834,N/A,"Rosa-Luxemburg-Straße 7, 10178 Berlin, Germany",meal_takeaway
Entrecôte,52.5084694,13.3913556,N/A,"Schützenstraße 5, 10117 Berlin, Germany",restaurant
Ganymed Brasserie,52.5217314,13.386344,N/A,"Schiffbauerdamm 5, 10117 Berlin, Germany",restaurant
Mokka Mitte Bar,52.5222181,13.3984601,N/A,"James Simon Park, Stadtbahnbogen 159/160, 10178 Berlin, Germany",bar
Samadhi,52.51459989999999,13.3812899,N/A,"Wilhelmstraße 77, 10117 Berlin, Germany",restaurant
Good Morning Vietnam,52.52833400000001,13.4094026,N/A,"Alte Schönhauser Str. 60, 10119 Berlin, Germany",restaurant
Casalot Restaurant,52.52454219999999,13.3863424,N/A,"Claire-Waldoff-Straße 5, 10117 Berlin, Germany",restaurant
Izumi Restaurant-Sushi Bar & Lieferservice,52.5112976,13.3886859,N/A,"Kronenstraße 66, 10117 Berlin, Germany",meal_takeaway
WORLD OF PIZZA Berlin-Mitte,52.50859800000001,13.4052917,N/A,"Seydelstraße 18, 10117 Berlin, Germany",meal_takeaway
Good Time Restaurant,52.5126478,13.3970312,N/A,"Hausvogteipl. 11, 10117 Berlin, Germany",restaurant
Schwarzwaldstuben,52.52766039999999,13.3930615,N/A,"Tucholskystraße 48, 10117 Berlin, Germany",bar
Papa Pane di Sorrento,52.53212310000001,13.3963886,N/A,"Ackerstraße 23, 10115 Berlin, Germany",restaurant
Trattoria Peretti,52.52002869999999,13.4031155,N/A,"Karl-Liebknecht-Str. 5, 10178 Berlin, Germany",restaurant
Hafenbar Berlin,52.52175940000001,13.4073919,N/A,"Karl-Liebknecht-Str. 11, 10178 Berlin, Germany",bar
GRAND BAR - Restaurant | Bar | Lounge in Berlin-Mitte,52.5250481,13.3931836,N/A,"Oranienburger Str. 33, 10117 Berlin, Germany",restaurant
Carambar,52.52038750000001,13.41214,N/A,"Rathausstraße 1, 10178 Berlin, Germany",restaurant
I due forni,52.5308535,13.4125762,N/A,"Schönhauser Allee 12, 10119 Berlin, Germany",restaurant
Kopps,52.5287904,13.3974753,N/A,"Linienstraße 94, 10115 Berlin, Germany",bar
YamYam Berlin,52.5275836,13.4082387,N/A,"Alte Schönhauser Str. 6, 10119 Berlin, Germany",restaurant
Gaststätte Sophieneck,52.52639169999999,13.398612,N/A,"Große Hamburger Str. 37, 10115 Berlin, Germany",restaurant
Nante-Eck | Restaurant Berlin Mitte,52.5166722,13.388301,N/A,"Unter den Linden 35, 10117 Berlin, Germany",restaurant
The Brooklyn,52.5117542,13.4137262,N/A,"Köpenicker Str. 92, 10179 Berlin, Germany",restaurant
Ristorante Piazza Rossa,52.5190156,13.4092823,N/A,"Rathausstraße 13, 10178 Berlin, Germany",meal_takeaway
Dark Restaurant Berlin,52.5286434,13.415533,N/A,"Saarbrücker Str. 36-38, 10405 Berlin, Germany",restaurant
Park Inn by Radisson Berlin Alexanderplatz,52.523125,13.4127656,N/A,"Alexanderpl. 7, 10178 Berlin, Germany",lodging
"Radisson Collection Hotel, Berlin",52.5195799,13.4027302,N/A,"Karl-Liebknecht-Str. 3, 10178 Berlin, Germany",lodging
Generator Berlin Mitte,52.525198,13.3913822,N/A,"Oranienburger Str. 65, 10117 Berlin, Germany",cafe
Leonardo Royal Hotel Berlin Alexanderplatz,52.52739139999999,13.4233692,N/A,"Otto-Braun-Straße 90, 10249 Berlin, Germany",lodging
Grill Royal,52.5226847,13.3887989,N/A,"Friedrichstraße 105b, 10117 Berlin, Germany",bar
The Sixties Diner,52.5237811,13.3993282,N/A,"Oranienburger Str. 11, 10178 Berlin, Germany",restaurant
Velvet52 Café & Bar,52.52592749999999,13.388256,N/A,"Oranienburger Str. 52, 10117 Berlin, Germany",cafe
Gugelhof,52.53545010000001,13.4166599,N/A,"Knaackstraße 37, 10435 Berlin, Germany",restaurant
Fleischerei,52.5297856,13.4105204,N/A,"Schönhauser Allee 8, 10119 Berlin, Germany",restaurant
"Das Lemke - Biergarten, Brauerei, Deutsche Küche",52.5232756,13.404724,N/A,"S-Bahnbogen 143, Dircksenstraße, 10178 Berlin, Germany",bar
Prater Beer Garden,52.540099,13.4097855,N/A,"Kastanienallee 7-9, 10435 Berlin, Germany",bar
Belushi's Berlin (Alexanderplatz),52.52690250000001,13.4106901,N/A,"Rosa-Luxemburg-Straße 41, 10178 Berlin, Germany",bar
An einem Sonntag im August,52.53996309999999,13.4115024,N/A,"Kastanienallee 103, 10435 Berlin, Germany",bar
Kilkenny Irish Pub,52.522491,13.401438,N/A,"Am Zwirngraben 17-20, 10178 Berlin, Germany",bar
Red Salon (Roter Salon),52.5271099,13.4115815,N/A,"Rosa-Luxemburg-Platz, 10178 Berlin, Germany",night_club
Wohnzimmerbar,52.5434719,13.4192195,N/A,"Lettestraße 6, 10437 Berlin, Germany",bar
Schwarzwaldstuben,52.52766039999999,13.3930615,N/A,"Tucholskystraße 48, 10117 Berlin, Germany",bar
Villa Rodizio,52.54546579999999,13.4114636,N/A,"Milastraße 2, 10437 Berlin, Germany",bar
Mokka Mitte Bar,52.5222181,13.3984601,N/A,"James Simon Park, Stadtbahnbogen 159/160, 10178 Berlin, Germany",bar
GRAND BAR - Restaurant | Bar | Lounge in Berlin-Mitte,52.5250481,13.3931836,N/A,"Oranienburger Str. 33, 10117 Berlin, Germany",restaurant
Kopps,52.5287904,13.3974753,N/A,"Linienstraße 94, 10115 Berlin, Germany",bar
Hafenbar Berlin,52.52175940000001,13.4073919,N/A,"Karl-Liebknecht-Str. 11, 10178 Berlin, Germany",night_club
Zu mir oder zu dir,52.5419644,13.4153325,N/A,"Lychener Str. 15, 10437 Berlin, Germany",bar
Trattoria Felice,52.5439491,13.4175574,N/A,"Lychener Str. 41, 10437 Berlin, Germany",bar
Bar/Kneipe Trauerspiel,52.5451972,13.411955,N/A,"Milastraße 7, 10437 Berlin, Germany",bar
X-Bar,52.5415573,13.4218145,N/A,"Raumerstraße 17A, 10437 Berlin, Germany",bar
Aapka,52.5339958,13.4047851,N/A,"Kastanienallee 50, 10119 Berlin, Germany",bar
Rutz,52.5282224,13.3862349,N/A,"Chausseestraße 8, 10115 Berlin, Germany",liquor_store
FRANNZ Club,52.53817160000001,13.4126258,N/A,"Schönhauser Allee 36, 10435 Berlin, Germany",night_club
Girasol,52.5416184,13.4232305,N/A,"Raumerstraße 30, 10437 Berlin, Germany",bar
Reingold,52.52865,13.3881556,N/A,"Novalisstraße 11, 10115 Berlin, Germany",bar
Schokoladen,52.52977689999999,13.3971137,N/A,"Ackerstraße 169, 10115 Berlin, Germany",bar
Oxymoron,52.5242225,13.4018132,N/A,"Rosenthaler Str. 40-41, 10178 Berlin, Germany",bar
Carambar,52.52038750000001,13.41214,N/A,"Rathausstraße 1, 10178 Berlin, Germany",restaurant
Mauersegler Berlin,52.5405764,13.4032308,N/A,"Bernauer Str. 63-64, 13355 Berlin, Germany",bar
Andy's Diner & Bar,52.519854,13.4029554,N/A,"Karl-Liebknecht-Str. 5, 10178 Berlin, Germany",bar
Nemo,52.53910459999999,13.4077388,N/A,"Oderberger Str. 46, 10435 Berlin, Germany",bar
Restaurant Keyser Soze,52.5262471,13.3932925,N/A,"Tucholskystraße 33, 10117 Berlin, Germany",restaurant
Z-Bar,52.5294848,13.3956931,N/A,"Bergstraße 2, 10115 Berlin, Germany",bar
House of Weekend,52.52293520000001,13.4163463,N/A,"Alexanderstraße 7, 10178 Berlin, Germany",night_club
Absinthdepot Berlin,52.5253564,13.4050257,N/A,"Weinmeisterstraße 4, 10178 Berlin, Germany",liquor_store
Strandbad Mitte,52.5273205,13.3966552,N/A,"Kleine Hamburger Str. 16, 10117 Berlin, Germany",restaurant
Berliner Republik,52.52129249999999,13.3855646,N/A,"Schiffbauerdamm 8, 10117 Berlin, Germany",bar
Mein Haus am See,52.5299428,13.4007965,N/A,"Brunnenstraße 197-198, 10119 Berlin, Germany",bar
Zur Gerichtslaube,52.5170542,13.4063319,N/A,"Poststraße 28, 10178 Berlin, Germany",bar
COOP Anti-War cafe bar,52.5240306,13.4074139,N/A,"Rochstraße 3, 10178 Berlin, Germany",cafe
Bar 55,52.5350833,13.4162932,N/A,"Kollwitzstraße 55, 10405 Berlin, Germany",bar
Ristorante Piazza Rossa,52.5190156,13.4092823,N/A,"Rathausstraße 13, 10178 Berlin, Germany",cafe
Pool und Cigars,52.53970469999999,13.4143231,N/A,"Schönhauser Allee 36, 10435 Berlin, Germany",bar
Neue Odessa Bar,52.5297031,13.4057467,N/A,"Torstraße 89, 10119 Berlin, Germany",bar
8MM,52.53121799999999,13.411524,N/A,"Schönhauser Allee 177b, 10119 Berlin, Germany",bar
Muret La Barba,52.52751920000001,13.4034784,N/A,"Rosenthaler Str. 61, 10119 Berlin, Germany",liquor_store
Sorsi e Morsi,52.534501,13.4248537,N/A,"Marienburger Str. 10, 10405 Berlin, Germany",bar
ZAZA Diner & Drinks,52.53912809999999,13.4100321,N/A,"Kastanienallee 12, 10435 Berlin, Germany",bar
Sportsbar Tor 133,52.52973240000001,13.3997225,N/A,"Torstraße 133, 10119 Berlin, Germany",casino
FC Magnet Bar,52.5329778,13.3999833,N/A,"Veteranenstraße 26, 10119 Berlin, Germany",bar
Alte Kantine,52.5395694,13.4136898,N/A,"Knaackstraße 97, 10435 Berlin, Germany",night_club
Restaurant SIMON,52.52757299999999,13.3993386,N/A,"Auguststraße 53, 10119 Berlin, Germany",meal_takeaway
Cleopatra - Shisha Bar,52.5286666,13.3857504,N/A,"Chausseestraße 11, 10115 Berlin, Germany",bar
Berliner Fernsehturm,52.520815,13.409419,N/A,"Panoramastraße 1A, 10178 Berlin, Germany",tourist_attraction
Park Inn by Radisson Berlin Alexanderplatz,52.523125,13.4127656,N/A,"Alexanderpl. 7, 10178 Berlin, Germany",bar
"Radisson Collection Hotel, Berlin",52.5195799,13.4027302,N/A,"Karl-Liebknecht-Str. 3, 10178 Berlin, Germany",gym
Leonardo Royal Hotel Berlin Alexanderplatz,52.52739139999999,13.4233692,N/A,"Otto-Braun-Straße 90, 10249 Berlin, Germany",bar
Grill Royal,52.5226847,13.3887989,N/A,"Friedrichstraße 105b, 10117 Berlin, Germany",bar
Hofbräu Wirtshaus Berlin,52.52456240000001,13.4138463,N/A,"Karl-Liebknecht-Str. 30, 10178 Berlin, Germany",restaurant
The Bird,52.5466504,13.4058208,N/A,"Am Falkpl. 5, 10437 Berlin, Germany",restaurant
Spreegold Mitte,52.5231605,13.4092636,N/A,"Rosa-Luxemburg-Straße 2, 10178 Berlin, Germany",restaurant
Sasaya,52.5443009,13.4185897,N/A,"Lychener Str. 50, 10437 Berlin, Germany",restaurant
Monsieur Vuong,52.5266538,13.4079523,N/A,"Alte Schönhauser Str. 46, 10119 Berlin, Germany",restaurant
The Sixties Diner,52.5237811,13.3993282,N/A,"Oranienburger Str. 11, 10178 Berlin, Germany",restaurant
Gugelhof,52.53545010000001,13.4166599,N/A,"Knaackstraße 37, 10435 Berlin, Germany",restaurant
Fleischerei,52.5297856,13.4105204,N/A,"Schönhauser Allee 8, 10119 Berlin, Germany",restaurant
"Das Lemke - Biergarten, Brauerei, Deutsche Küche",52.5232756,13.404724,N/A,"S-Bahnbogen 143, Dircksenstraße, 10178 Berlin, Germany",bar
Prater Beer Garden,52.540099,13.4097855,N/A,"Kastanienallee 7-9, 10435 Berlin, Germany",bar
Belushi's Berlin (Alexanderplatz),52.52690250000001,13.4106901,N/A,"Rosa-Luxemburg-Straße 41, 10178 Berlin, Germany",bar
Café Anna Blume,52.5380566,13.4195398,N/A,"Kollwitzstraße 83, 10435 Berlin, Germany",cafe
BLOCK HOUSE Am Alexanderplatz,52.52064610000001,13.4052203,N/A,"Karl-Liebknecht-Str. 7, 10178 Berlin, Germany",meal_takeaway
Mamay - vietnamesische Küche,52.54554290000002,13.4133056,N/A,"Schönhauser Allee 61, 10437 Berlin, Germany",restaurant
Meena Kumari,52.54150550000001,13.4148501,N/A,"Lychener Str. 9, 10437 Berlin, Germany",restaurant
YOSOY TAPAS BERLIN,52.52443339999999,13.4027616,N/A,"Rosenthaler Str. 37, 10178 Berlin, Germany",restaurant
Café Datscha Mitte,52.5305237,13.401652,N/A,"Weinbergsweg 25, 10119 Berlin, Germany",restaurant
An einem Sonntag im August,52.53996309999999,13.4115024,N/A,"Kastanienallee 103, 10435 Berlin, Germany",bar
Kilkenny Irish Pub,52.522491,13.401438,N/A,"Am Zwirngraben 17-20, 10178 Berlin, Germany",bar
Aposto,52.5227072,13.3998395,N/A,"Monbijoupl. 12, 10178 Berlin, Germany",restaurant
Dolores Mitte,52.5238317,13.4091834,N/A,"Rosa-Luxemburg-Straße 7, 10178 Berlin, Germany",meal_takeaway
Papa Pane di Sorrento,52.53212310000001,13.3963886,N/A,"Ackerstraße 23, 10115 Berlin, Germany",restaurant
Good Morning Vietnam,52.52833400000001,13.4094026,N/A,"Alte Schönhauser Str. 60, 10119 Berlin, Germany",restaurant
Wohnzimmerbar,52.5434719,13.4192195,N/A,"Lettestraße 6, 10437 Berlin, Germany",bar
Schwarzwaldstuben,52.52766039999999,13.3930615,N/A,"Tucholskystraße 48, 10117 Berlin, Germany",bar
Villa Rodizio,52.54546579999999,13.4114636,N/A,"Milastraße 2, 10437 Berlin, Germany",bar
Mokka Mitte Bar,52.5222181,13.3984601,N/A,"James Simon Park, Stadtbahnbogen 159/160, 10178 Berlin, Germany",bar
I due forni,52.5308535,13.4125762,N/A,"Schönhauser Allee 12, 10119 Berlin, Germany",restaurant
GRAND BAR - Restaurant | Bar | Lounge in Berlin-Mitte,52.5250481,13.3931836,N/A,"Oranienburger Str. 33, 10117 Berlin, Germany",restaurant
Kopps,52.5287904,13.3974753,N/A,"Linienstraße 94, 10115 Berlin, Germany",bar
Casalot Restaurant,52.52454219999999,13.3863424,N/A,"Claire-Waldoff-Straße 5, 10117 Berlin, Germany",restaurant
Cenacolo,52.5386,13.4160201,N/A,"Sredzkistraße 23, 10435 Berlin, Germany",restaurant
YamYam Berlin,52.5275836,13.4082387,N/A,"Alte Schönhauser Str. 6, 10119 Berlin, Germany",restaurant
Hafenbar Berlin,52.52175940000001,13.4073919,N/A,"Karl-Liebknecht-Str. 11, 10178 Berlin, Germany",bar
Gaststätte Sophieneck,52.52639169999999,13.398612,N/A,"Große Hamburger Str. 37, 10115 Berlin, Germany",restaurant
Trattoria Felice,52.5439491,13.4175574,N/A,"Lychener Str. 41, 10437 Berlin, Germany",cafe
Dark Restaurant Berlin,52.5286434,13.415533,N/A,"Saarbrücker Str. 36-38, 10405 Berlin, Germany",restaurant
MarienBurgerie,52.5353757,13.4233987,N/A,"Marienburger Str. 47, 10405 Berlin, Germany",meal_takeaway
Trattoria Peretti,52.52002869999999,13.4031155,N/A,"Karl-Liebknecht-Str. 5, 10178 Berlin, Germany",restaurant
Les Valseuses Restaurant,52.54129489999999,13.4108581,N/A,"Eberswalder Str. 28, 10437 Berlin, Germany",restaurant
Katz Orange,52.5314438,13.3946245,N/A,"Bergstraße 22, 10115 Berlin, Germany",restaurant
Aapka,52.5339958,13.4047851,N/A,"Kastanienallee 50, 10119 Berlin, Germany",meal_takeaway
Restaurant Via Nova II,52.51981,13.3922245,N/A,"Universitätsstraße 2, 10117 Berlin, Germany",restaurant
Rutz,52.5282224,13.3862349,N/A,"Chausseestraße 8, 10115 Berlin, Germany",liquor_store
FRANNZ Club,52.53817160000001,13.4126258,N/A,"Schönhauser Allee 36, 10435 Berlin, Germany",night_club
Girasol,52.5416184,13.4232305,N/A,"Raumerstraße 30, 10437 Berlin, Germany",cafe
Toca Rouge,52.52832249999999,13.3920144,N/A,"Torstraße 195, 10115 Berlin, Germany",restaurant
Brechts Steakhaus,52.52150649999999,13.3859209,N/A,"Schiffbauerdamm 7, 10117 Berlin, Germany",restaurant
Soda Restaurant,52.5383047,13.4127573,N/A,"Schönhauser Allee 36, 10435 Berlin, Germany",restaurant
Tuans Hütte Thai u. Sushi,52.5235406,13.4070642,N/A,"Dircksenstraße 40, 10178 Berlin, Germany",restaurant
Oxymoron,52.5242225,13.4018132,N/A,"Rosenthaler Str. 40-41, 10178 Berlin, Germany",cafe
Carambar,52.52038750000001,13.41214,N/A,"Rathausstraße 1, 10178 Berlin, Germany",restaurant
Restaurant Nolle,52.5199975,13.3890768,N/A,"Georgenstrasse, S, Bahnbogen 203, 10117 Berlin, Germany",restaurant
Onkel Ho,52.5469255,13.4060401,N/A,"Gleimstraße 10A, 10437 Berlin, Germany",restaurant
Mauersegler Berlin,52.5405764,13.4032308,N/A,"Bernauer Str. 63-64, 13355 Berlin, Germany",bar
Ganymed Brasserie,52.5217314,13.386344,N/A,"Schiffbauerdamm 5, 10117 Berlin, Germany",restaurant
Michelberger Hotel,52.5045667,13.4478541,N/A,"Warschauer Str. 39-40, 10243 Berlin, Germany",bar
Park Inn by Radisson Berlin Alexanderplatz,52.523125,13.4127656,N/A,"Alexanderpl. 7, 10178 Berlin, Germany",bar
Freiraum Hostel & Guesthouse,52.4982863,13.4288035,N/A,"Wiener Straße 14, 10999 Berlin, Germany",bar
Zur letzten Instanz,52.5173692,13.4137999,N/A,"Waisenstraße 14-16, 10179 Berlin, Germany",bar
Watergate,52.5010558,13.4452521,N/A,"Falckensteinstraße 49, 10997 Berlin, Germany",night_club
Café Luzia,52.5016759,13.4182843,N/A,"Oranienstraße 34, 10999 Berlin, Germany",bar
Zur Gerichtslaube,52.5170542,13.4063319,N/A,"Poststraße 28, 10178 Berlin, Germany",bar
Brauhaus GEORGBRAEU,52.5165548,13.4055038,N/A,"Spreeufer 4, 10178 Berlin, Germany",restaurant
Madonna Bar,52.4973019,13.4314465,N/A,"Wiener Straße 22, 10999 Berlin, Germany",bar
Café Restaurant Jolesch,52.500732,13.4340017,N/A,"Muskauer Str. 1, 10997 Berlin, Germany",bar
Würgeengel,52.50107999999999,13.4166468,N/A,"Dresdener Str. 122, 10999 Berlin, Germany",bar
Monster Ronson's Ichiban Karaoke,52.5052743,13.4484712,N/A,"Warschauer Str. 34, 10243 Berlin, Germany",bar
Urban Spree,52.507828,13.4516096,N/A,"Revaler Str. 99, 10245 Berlin, Germany",art_gallery
Carambar,52.52038750000001,13.41214,N/A,"Rathausstraße 1, 10178 Berlin, Germany",restaurant
Ankerklause,52.49583619999999,13.4205592,N/A,"Kottbusser Damm 104, 10967 Berlin, Germany",restaurant
Ristorante Piazza Rossa,52.5190156,13.4092823,N/A,"Rathausstraße 13, 10178 Berlin, Germany",bar
Möbel Olfe,52.499985,13.417456,N/A,"Reichenberger Str. 177, 10999 Berlin, Germany",bar
Upside Down Bar & Restaurant,52.5124341,13.4098683,N/A,"Wallstraße 70, 10179 Berlin, Germany",restaurant
Strike Lanes Lounge Bowling,52.518512,13.416302,N/A,"3. OG Alexa, Grunerstraße 20, 10179 Berlin, Germany",bowling_alley
Wild At Heart,52.497509,13.4309406,N/A,"Wiener Straße 20, 10999 Berlin, Germany",bar
Cafe Morgenland,52.4988773,13.425704,N/A,"Skalitzer Str. 35, 10999 Berlin, Germany",restaurant
Bar11,52.49740000000001,13.43116,N/A,"Wiener Straße 21, 10999 Berlin, Germany",bar
Marinehaus - Restaurant und Kneipe,52.5141105,13.415968,N/A,"Märkisches Ufer 48-50, 10179 Berlin, Germany",bar
Mano Cafe,52.4989448,13.4306064,N/A,"Skalitzer Str. 46A, 10997 Berlin, Germany",cafe
House of Weekend,52.52293520000001,13.4163463,N/A,"Alexanderstraße 7, 10178 Berlin, Germany",night_club
Republic Berlin,52.5109542,13.417325,N/A,"Köpenicker Str. 74, 10179 Berlin, Germany",meal_takeaway
The Black Lodge Berlin,52.4921349,13.4243918,N/A,"Sanderstraße 6, 12047 Berlin, Germany",bar
SCHOPPE BRÄU TAPROOM im BKK,52.49774900000001,13.424725,N/A,"Manteuffelstraße 53, 10999 Berlin, Germany",bar
Café Mori - café brasileiro,52.4983617,13.42848,N/A,"Wiener Straße 13, 10999 Berlin, Germany",cafe
Tapas y más,52.51024719999999,13.4061061,N/A,"Neue Grünstraße 17-18, 10179 Berlin, Germany",bar
Cancún,52.51913859999999,13.4095071,N/A,"Rathausstraße 5-13, 10178 Berlin, Germany",cafe
Black Light Mini Golf Berlin,52.4983833,13.4336923,N/A,"im Görlitzer Park, Görlitzer Str. 1/Haus 1, 10997 Berlin, Germany",tourist_attraction
Goldberg Bar Café Restaurant,52.4911197,13.4295366,N/A,"Reuterstraße 40, 12047 Berlin, Germany",restaurant
Berliner Fernsehturm,52.520815,13.409419,N/A,"Panoramastraße 1A, 10178 Berlin, Germany",tourist_attraction
3 Sisters,52.5038607,13.4243826,N/A,"Mariannenpl. 2, 10997 Berlin, Germany",cafe
Hafenbar Berlin,52.52175940000001,13.4073919,N/A,"Karl-Liebknecht-Str. 11, 10178 Berlin, Germany",bar
NEST Schank- und Speisewirtschaft,52.4972294,13.4390859,N/A,"Görlitzer Str. 52, 10997 Berlin, Germany",restaurant
Fitcher's Vogel,52.510388,13.451204,N/A,"Warschauer Str. 26, 10243 Berlin, Germany",bar
L.U.X Leiseste Unterhaltung X-Berg,52.5004326,13.4437628,N/A,"Schlesische Str. 41, 10997 Berlin, Germany",bar
Hirsch,52.5108299,13.4503402,N/A,"Kopernikusstraße 3, 10243 Berlin, Germany",bar
Bierbar Alkopole,52.5214089,13.4117395,N/A,"Dircksenstraße 2, 10178 Berlin, Germany",bar
Tante Lisbeth,52.5011774,13.4317162,N/A,"Muskauer Str. 49, 10997 Berlin, Germany",bowling_alley
Roses,52.500511,13.4216465,N/A,"Oranienstraße 187, 10999 Berlin, Germany",bar
A.HORN,52.495879,13.40545,N/A,"Carl-Herz-Ufer 9, 10961 Berlin, Germany",restaurant
Gittis Bier-Bar,52.5120715,13.4168373,N/A,"Brückenstraße 13, 10179 Berlin, Germany",bar
Zur Fetten Ecke,52.4990256,13.4454752,N/A,"Schlesische Str. 16, 10997 Berlin, Germany",bar
Mysliwska,52.49951739999999,13.4453499,N/A,"Schlesische Str. 35, 10997 Berlin, Germany",bar
Fabelhaft bar,52.4922817,13.4208923,N/A,"Schönleinstraße 6, 10967 Berlin, Germany",bar
ZU SPÄTI?!-Molotow Cocktail,52.5004101,13.4220167,N/A,"Oranienstraße 189, 10999 Berlin, Germany",bar
MEXICAN KITCHEN COCKTAIL BAR,52.4994482,13.4435352,N/A,"Falckensteinstraße 42, 10997 Berlin, Germany",bar
Besenkammer,52.52062249999999,13.4123201,N/A,"Rathausstraße 1, 10178 Berlin, Germany",bar
Santa Maria,52.5015469,13.4177748,N/A,"Oranienstraße 170, 10999 Berlin, Germany",bar
Saz Bar Berlin,52.5006371,13.418492,N/A,"Adalbertstraße 95A, 10999 Berlin, Germany",bar
Weinbar - Gallina,52.502372,13.4304713,N/A,"Pücklerstraße 20, 10997 Berlin, Germany",bar
Südblock,52.49856560000001,13.4169759,N/A,"Admiralstraße 1-2, 10999 Berlin, Germany",restaurant
Lauscherlounge GmbH,52.50424220000001,13.4195948,N/A,"Waldemarstraße 33 a Franklinstraße 14 10587, 10999 Berlin, Germany",bar
Holzmarkt Pampa,52.5112724,13.4266567,N/A,"Holzmarktstraße 25, 10243 Berlin, Germany",bar
The Pharmacy Bar,52.5017644,13.4237962,N/A,"Mariannenpl. 6, 10997 Berlin, Germany",bar
Trinkteufel,52.5020719,13.4202207,N/A,"Naunynstraße 60, 10997 Berlin, Germany",bar
Lerchen&Eulen,52.5020624,13.4307922,N/A,"Pücklerstraße 33, 10997 Berlin, Germany",bar
Michelberger Hotel,52.5045667,13.4478541,N/A,"Warschauer Str. 39-40, 10243 Berlin, Germany",cafe
Park Inn by Radisson Berlin Alexanderplatz,52.523125,13.4127656,N/A,"Alexanderpl. 7, 10178 Berlin, Germany",lodging
Park Plaza Wallstreet Berlin Mitte,52.51150670000001,13.4077502,N/A,"Wallstraße 23-24, 10179 Berlin, Germany",lodging
Cosmo Hotel Berlin Mitte,52.5117038,13.4013856,N/A,"Spittelmarkt 13, 10117 Berlin, Germany",lodging
Freiraum Hostel & Guesthouse,52.4982863,13.4288035,N/A,"Wiener Straße 14, 10999 Berlin, Germany",cafe
Hotel 26 - Hotel in Berlin Friedrichshain Kreuzberg,52.5125094,13.4510737,N/A,"Grünberger Str. 26, 10245 Berlin, Germany",lodging
Zur letzten Instanz,52.5173692,13.4137999,N/A,"Waisenstraße 14-16, 10179 Berlin, Germany",bar
AMRIT - Berlin Kreuzberg,52.4996697,13.4245949,N/A,"Oranienstraße 204, 10999 Berlin, Germany",restaurant
Burgermeister Schlesisches Tor,52.50109260000001,13.4422998,N/A,"U1 Schlesisches Tor, Oberbaumstraße 8, 10997 Berlin, Germany",meal_takeaway
Max und Moritz,52.5025993,13.4139938,N/A,"Oranienstraße 162, 10969 Berlin, Germany",restaurant
Ming Dynastie Jannowitzbrücke Berlin,52.51356489999999,13.4180546,N/A,"Brückenstraße 6, 10179 Berlin, Germany",meal_takeaway
Zur Gerichtslaube,52.5170542,13.4063319,N/A,"Poststraße 28, 10178 Berlin, Germany",bar
Brauhaus GEORGBRAEU,52.5165548,13.4055038,N/A,"Spreeufer 4, 10178 Berlin, Germany",restaurant
Café Restaurant Jolesch,52.500732,13.4340017,N/A,"Muskauer Str. 1, 10997 Berlin, Germany",liquor_store
WORLD OF PIZZA Berlin-Mitte,52.50859800000001,13.4052917,N/A,"Seydelstraße 18, 10117 Berlin, Germany",meal_takeaway
BLOCK HOUSE Karl-Marx-Allee,52.51767700000001,13.440378,N/A,"Karl-Marx-Allee 91, 10243 Berlin, Germany",meal_takeaway
Mutter Hoppe,52.5177056,13.4062088,N/A,"Rathausstraße 21, 10178 Berlin, Germany",restaurant
Restaurant VOLT,52.4936673,13.4299587,N/A,"Paul-Lincke-Ufer 21, 10999 Berlin, Germany",restaurant
The Brooklyn,52.5117542,13.4137262,N/A,"Köpenicker Str. 92, 10179 Berlin, Germany",restaurant
Kuchen-Kaiser,52.50275070000001,13.4169326,N/A,"Oranienpl. 11-13, 10999 Berlin, Germany",restaurant
Horváth,52.496461,13.4208765,N/A,"Paul-Lincke-Ufer 44a, 10999 Berlin, Germany",restaurant
Urban Spree,52.507828,13.4516096,N/A,"Revaler Str. 99, 10245 Berlin, Germany",art_gallery
Carambar,52.52038750000001,13.41214,N/A,"Rathausstraße 1, 10178 Berlin, Germany",restaurant
Ankerklause,52.49583619999999,13.4205592,N/A,"Kottbusser Damm 104, 10967 Berlin, Germany",restaurant
Ännchen von Tharau,52.5153688,13.4166062,N/A,"Rolandufer 6, 10179 Berlin, Germany",restaurant
Ristorante Piazza Rossa,52.5190156,13.4092823,N/A,"Rathausstraße 13, 10178 Berlin, Germany",bar
Umspannwerk Ost,52.518269,13.4400823,N/A,"Palisadenstraße 48, 10243 Berlin, Germany",restaurant
Play Off,52.5098507,13.4341474,N/A,"Am Ostbahnhof 9, 10243 Berlin, Germany",restaurant
Kentucky Fried Chicken,52.5206288,13.4128286,N/A,"Dircksenstraße 117, 10178 Berlin, Germany",restaurant
Café Jacques,52.49419269999999,13.4254616,N/A,"Maybachufer 14, 12047 Berlin, Germany",restaurant
Upside Down Bar & Restaurant,52.5124341,13.4098683,N/A,"Wallstraße 70, 10179 Berlin, Germany",restaurant
Baraka - Moroccan Restaurant,52.4998095,13.4298377,N/A,"Lausitzer Pl. 6, 10997 Berlin, Germany",restaurant
Rotisserie Weingrün,52.5126717,13.4029553,N/A,"Gertraudenstraße 10-12, 10178 Berlin, Germany",restaurant
Rocco und seine Brüder,52.5010257,13.4307872,N/A,"Lausitzer Pl. 13, 10997 Berlin, Germany",restaurant
Defne,52.4953624,13.4177063,N/A,"Planufer 92C, 10967 Berlin, Germany",restaurant
Ta’Cabrón Taqueria,52.4998741,13.4370962,N/A,"Skalitzer Str. 60, 10997 Berlin, Germany",restaurant
Tiki Heart Cafe,52.49751060000001,13.4309508,N/A,"Wiener Straße 20, 10999 Berlin, Germany",restaurant
Zum Nußbaum,52.5171608,13.4071618,N/A,"Am Nußbaum 3, 10178 Berlin, Germany",restaurant
Strike Lanes Lounge Bowling,52.518512,13.416302,N/A,"3. OG Alexa, Grunerstraße 20, 10179 Berlin, Germany",bowling_alley
Cafe Morgenland,52.4988773,13.425704,N/A,"Skalitzer Str. 35, 10999 Berlin, Germany",restaurant
Domino's Pizza Berlin Kreuzberg Nord,52.50329,13.4126199,N/A,"Oranienstraße 52, 10969 Berlin, Germany",restaurant
East Side Blick,52.50398509999999,13.4419749,N/A,"Mühlenstraße 70-71, 10243 Berlin, Germany",restaurant
Marinehaus - Restaurant und Kneipe,52.5141105,13.415968,N/A,"Märkisches Ufer 48-50, 10179 Berlin, Germany",bar
BLOCK HOUSE Am Alexanderplatz,52.52064610000001,13.4052203,N/A,"Karl-Liebknecht-Str. 7, 10178 Berlin, Germany",meal_takeaway
Kos House,52.5168854,13.4488699,N/A,"Karl-Marx-Allee 129, 10243 Berlin, Germany",restaurant
Lotos Café,52.5176157,13.423865,N/A,"Neue Blumenstraße 5, 10179 Berlin, Germany",cafe
Il Casolare,52.49493829999999,13.4155485,N/A,"Grimmstraße 30, 10967 Berlin, Germany",restaurant
Miss Saigon Restaurant,52.4987214,13.4265186,N/A,"Skalitzer Str. 38, 10999 Berlin, Germany",restaurant
Kreuzberger Weltlaterne,52.497091,13.4176553,N/A,"Kohlfurter Str. 37, 10999 Berlin, Germany",restaurant
Acapulco Berlin,52.51709390000001,13.4465064,N/A,"Karl-Marx-Allee 115, 10243 Berlin, Germany",restaurant
Zum Paddenwirt,52.5167505,13.4081516,N/A,"Nikolaikirchpl. 6, 10178 Berlin, Germany",restaurant
McDonald's,52.5006965,13.4362423,N/A,"Wrangelstraße 35, 10997 Berlin, Germany",restaurant
Republic Berlin,52.5109542,13.417325,N/A,"Köpenicker Str. 74, 10179 Berlin, Germany",meal_takeaway
Rock-Paper...,52.5033946,13.4102416,N/A,"Aufbau Haus / Modulor, Prinzenstraße 85, 10969 Berlin, Germany",cafe
Safran,52.5014711,13.418185,N/A,"Oranienstraße 172, 10999 Berlin, Germany",restaurant
SCHOPPE BRÄU TAPROOM im BKK,52.49774900000001,13.424725,N/A,"Manteuffelstraße 53, 10999 Berlin, Germany",bar
A Mano,52.5193916,13.4273865,N/A,"Strausberger Pl. 2, 10243 Berlin, Germany",restaurant
La Piccola,52.5054828,13.3973933,N/A,"Ritterstraße 60B, 10969 Berlin, Germany",meal_takeaway
Café Mori - café brasileiro,52.4983617,13.42848,N/A,"Wiener Straße 13, 10999 Berlin, Germany",cafe
Good Time Restaurant,52.5126478,13.3970312,N/A,"Hausvogteipl. 11, 10117 Berlin, Germany",restaurant
Hotel Palace Berlin,52.50494609999999,13.3389074,N/A,"Budapester Str. 45, 10787 Berlin, Germany",spa
Park Plaza Berlin Kudamm,52.5014182,13.3312949,N/A,"Joachimsthaler Str. 28-29, 10719 Berlin, Germany",lodging
Lulu Guldsmeden Hotel,52.5034079,13.3663092,N/A,"Potsdamer Str. 67, 10785 Berlin, Germany",lodging
Green Door Bar,52.4970352,13.3529749,N/A,"Winterfeldtstraße 50, 10781 Berlin, Germany",bar
Havanna,52.485115,13.353549,N/A,"Hauptstraße 30, 10827 Berlin, Germany",night_club
Golden Dolls,52.5036206,13.3658568,N/A,"Potsdamer Str. 82, 10785 Berlin, Germany",night_club
Stagger Lee,52.4975727,13.3516112,N/A,"Nollendorfstraße 27, 10777 Berlin, Germany",bar
Victoria Bar,52.5013842,13.3638842,N/A,"Potsdamer Str. 102, 10785 Berlin, Germany",bar
Tabasco,52.4991934,13.3488574,N/A,"Fuggerstraße 3, 10777 Berlin, Germany",night_club
Heile Welt,52.4987552,13.3518554,N/A,"Motzstraße 5, 10777 Berlin, Germany",cafe
E. & M. Leydicke,52.49260820000001,13.3666136,N/A,"Mansteinstraße 4, 10783 Berlin, Germany",bar
Jansen Bar - Cocktail Bar,52.48299629999999,13.3605531,N/A,"Gotenstraße 71, 10829 Berlin, Germany",bar
Maigold,52.48814889999999,13.3525612,N/A,"Merseburger Str. 7, 10823 Berlin, Germany",bar
The Unique Bar Berlin,52.505515,13.354985,N/A,"Sheraton Berlin Grand Hotel Esplanade, Lützowufer 15, 10785 Berlin, Germany",bar
Suksan,52.50433990000001,13.3424447,N/A,"Ansbacher Str. 4, 10787 Berlin, Germany",bar
Kumpelnest 3000,52.5030774,13.3663564,N/A,"Lützowstraße 23, 10785 Berlin, Germany",bar
Scheune,52.49772180000001,13.3484757,N/A,"Motzstraße 25, 10777 Berlin, Germany",night_club
Tom's Bar,52.49804349999999,13.3493818,N/A,"Motzstraße 19, 10777 Berlin, Germany",night_club
Beetroot - Café Bar,52.4904728,13.3552667,N/A,"Gleditschstraße 71, 10781 Berlin, Germany",bar
Pathamayana Tantra Lounge,52.4850813,13.346349,N/A,"Belziger Str. 70, 10823 Berlin, Germany",bar
The little Philharmony,52.4996685,13.3301547,N/A,"Schaperstraße 14, 10719 Berlin, Germany",bar
Ristorante Café Aroma,52.4900879,13.3693657,N/A,"Hochkirchstraße 8, 10829 Berlin, Germany",bar
Prinzknecht ( MEN´S BAR ),52.4990392,13.3429133,N/A,"Fuggerstraße 33, 10777 Berlin, Germany",bar
Amadeus,52.4896579,13.359977,N/A,"Hauptstraße 158, 10827 Berlin, Germany",travel_agency
Mein Freund Harvey,52.4919829,13.3646223,N/A,"Kulmer Str. 20A, 10783 Berlin, Germany",bar
Ferdinand Freiherr von Seebach,52.4881733,13.3649496,N/A,"Hohenfriedbergstraße 27, 10829 Berlin, Germany",bar
Berlinchen,52.5037932,13.3445357,N/A,"Bayreuther Str. 44, 10787 Berlin, Germany",bar
Barcode Lounge,52.4997474,13.3490883,N/A,"Eisenacher Str. 3, 10777 Berlin, Germany",bar
Caffè-Bistro-Sport-Italia,52.50059079999999,13.341158,N/A,"Ansbacher Str. 32, 10789 Berlin, Germany",bar
Sardinen Bar,52.48976630000001,13.3538896,N/A,"Grunewaldstraße 79, 10823 Berlin, Germany",restaurant
Lochner Weinwirtschaft,52.49025650000001,13.3493311,N/A,"Eisenacher Str. 86, 10781 Berlin, Germany",liquor_store
Mattea - Brunch Café & Aperitivo Bar,52.49327109999999,13.351966,N/A,"Frankenstraße 13, 10781 Berlin, Germany",bar
Hannibal,52.4845518,13.3523897,N/A,"Hauptstraße 36, 10827 Berlin, Germany",restaurant
Mutter,52.4950121,13.3525563,N/A,"Hohenstaufenstraße 4, 10781 Berlin, Germany",bar
La Cantine d'Augusta Käse Restaurant und Wein Bar,52.4891205,13.3621136,N/A,"Langenscheidtstraße 6A, 10827 Berlin, Germany",bar
Sabine Westphal Cafe Nostalgie,52.4882363,13.3619443,N/A,"Crellestraße 22, 10827 Berlin, Germany",bar
AJPNIA e.V.,52.4868287,13.3430211,N/A,"Wartburgstr. 18, 10825 Berlin, Germany",bar
Barkett,52.4880757,13.3640433,N/A,"Czeminskistraße 10, 10829 Berlin, Germany",bar
Gitan Wein und Feinkost,52.49697020000001,13.3524147,N/A,"Winterfeldtstraße 52, 10781 Berlin, Germany",liquor_store
Voima Cocktailbar,52.4966665,13.3577773,N/A,"Winterfeldtstraße 22, 10781 Berlin, Germany",bar
Laax,52.48304879999999,13.3440321,N/A,"Fritz-Elsas-Straße 30, 10825 Berlin, Germany",park
What's Up Café Bar,52.4812441,13.3488614,N/A,"Dominicusstraße 36, 10827 Berlin, Germany",bar
Berliner Kochwerkstatt,52.4844,13.3638,N/A,"Naumannstraße 15, 10829 Berlin, Germany",restaurant
Hafen,52.49801309999999,13.3492939,N/A,"Motzstraße 19, 10777 Berlin, Germany",bar
Bar Voyage,52.498054,13.3562195,N/A,"Nollendorfstraße 1, 10783 Berlin, Germany",bar
Hans Rheinhessische Weinstube,52.49891499999999,13.3509562,N/A,"Motzstraße 10, 10777 Berlin, Germany",restaurant
Tresen Treff,52.4880276,13.3368132,N/A,"Berliner Straße 167, 10715 Berlin, Germany",bar
Bülow Kneipe,52.4977222,13.3612378,N/A,"Bülowstraße 24, 10783 Berlin, Germany",bar
"Geoline Store - georgische Weine, Feinkost & mehr",52.4796529,13.3500397,N/A,"Gustav-Freytag-Straße 5, 10827 Berlin, Germany",liquor_store
Hardy's Pub,52.4992171,13.356773,N/A,"Bülowstraße 101, 10783 Berlin, Germany",bar
East61 Indoor Beachvolleyball,52.4818448,13.3640401,N/A,"Wilhelm-Kabus-Straße 42, 10829 Berlin, Germany",restaurant
Dan Bar-On - International Dialogue Center e.V.,52.4790409,13.348904,N/A,"Ebersstraße 64, 10827 Berlin, Germany",bar
Sally Bowles,52.49988339999999,13.3493747,N/A,"Eisenacher Str. 2, 10777 Berlin, Germany",bar
Kneipe - Das Versteck,52.4942286,13.3363891,N/A,"Motzstraße 76, 10779 Berlin, Germany",restaurant
BULL Berlin,52.5001961,13.3492416,N/A,"Kleiststraße 35, 10787 Berlin, Germany",bar
CAFE BAR DOWNTOWN,52.5023729,13.3517359,N/A,"Kurfürstenstraße 127, 10785 Berlin, Germany",bar
K6,52.5005657,13.3503091,N/A,"Kleiststraße 6, 10787 Berlin, Germany",bar
NAUMANNKÜCHE,52.4814336,13.3655482,N/A,"vor der Bright site in der Sonne, Wilhelm-Kabus-Straße 36/Haus 10, 10829 Berlin, Germany",restaurant
Cafe Flair,52.4953424,13.3348513,N/A,"Nachodstraße 5, 10779 Berlin, Germany",bar
Amadeus Bierbar,52.4941671,13.3304872,N/A,"Bundesallee 19, 10717 Berlin, Germany",bar
Hotel Palace Berlin,52.50494609999999,13.3389074,N/A,"Budapester Str. 45, 10787 Berlin, Germany",spa
Park Plaza Berlin Kudamm,52.5014182,13.3312949,N/A,"Joachimsthaler Str. 28-29, 10719 Berlin, Germany",bar
Lulu Guldsmeden Hotel,52.5034079,13.3663092,N/A,"Potsdamer Str. 67, 10785 Berlin, Germany",bar
Gas holder,52.4815268,13.3572796,N/A,"EUREF-Campus 17, EUREF-Campus 15B, 10829 Berlin, Germany",tourist_attraction
Taverna Ousia,52.48817209999999,13.33794,N/A,"Grunewaldstraße 54, 10825 Berlin, Germany",restaurant
Café BilderBuch,52.4866951,13.3551294,N/A,"Akazienstraße 28, 10823 Berlin, Germany",cafe
Il Sorriso,52.5038333,13.3477162,N/A,"Kurfürstenstraße 76, 10787 Berlin, Germany",restaurant
AMRIT Restaurant Schoneberg,52.4972412,13.3549353,N/A,"Winterfeldtstraße 40, 10781 Berlin, Germany",restaurant
Lon Men,52.4885811,13.3366737,N/A,"Bamberger Str. 30, 10779 Berlin, Germany",meal_delivery
La Cocotte,52.4891322,13.354309,N/A,"Vorbergstraße 10, 10823 Berlin, Germany",restaurant
Jet,52.4892,13.3744,N/A,"Kreuzbergstraße 41, 10965 Berlin, Germany",gas_station
Renger-Patzsch,52.4874305,13.3519516,N/A,"Wartburgstr. 54, 10823 Berlin, Germany",restaurant
Restaurant Bieberbau,52.4795489,13.3337296,N/A,"Durlacher Str. 15, 10715 Berlin, Germany",restaurant
Hasir Restaurant,52.50062519999999,13.3369987,N/A,"Nürnberger Str. 46, 10789 Berlin, Germany",restaurant
Restaurant R 23,52.50136699999999,13.3328372,N/A,"Rankestraße 23, 10789 Berlin, Germany",restaurant
La Sepia,52.50332539999999,13.3369481,N/A,"Marburger Str. 2, 10789 Berlin, Germany",restaurant
Shell,52.4962585,13.3465922,N/A,"Shell Tankstelle, Martin-Luther-Str. 29, 10777 Berlin, Germany",gas_station
Bejte-Ethiopia,52.4993923,13.3570205,N/A,"Zietenstraße 8, 10783 Berlin, Germany",restaurant
Joseph-Roth-Diele,52.5025657,13.3656326,N/A,"Potsdamer Str. 75, 10785 Berlin, Germany",cafe
Witty's - Die Bio-Currywurst,52.5022799,13.3425455,N/A,"Wittenbergpl. 5, 10789 Berlin, Germany",meal_takeaway
Burger King,52.500514,13.3631341,N/A,"Potsdamer Str. 114, 10785 Berlin, Germany",restaurant
Sushi T. Phu,52.48795199999999,13.3339139,N/A,"Berliner Straße 5, 10715 Berlin, Germany",meal_delivery
Berkis,52.496872,13.3535709,N/A,"Winterfeldtstraße 45, 10781 Berlin, Germany",restaurant
Restaurant HODORI,52.4937286,13.3665339,N/A,"Goebenstraße 16, 10783 Berlin, Germany",restaurant
Munch's Hus,52.4964802,13.3670014,N/A,"Bülowstraße 66, 10783 Berlin, Germany",restaurant
Tafelrunde,52.49495599999999,13.3341965,N/A,"Nachodstraße 21, 10779 Berlin, Germany",restaurant
Aki Tatsu Sushi & more,52.4972218,13.3549698,N/A,"Winterfeldtstraße 40, 10781 Berlin, Germany",restaurant
Dolce Pizza,52.48469170000001,13.3459988,N/A,"Belziger Str. 73, 10823 Berlin, Germany",restaurant
Lieu in Berlin - Vietnam Restaurant,52.503683,13.3466578,N/A,"Kurfürstenstraße 112, 10787 Berlin, Germany",restaurant
Habibi,52.48818470000001,13.3543614,N/A,"Akazienstraße 9, 10823 Berlin, Germany",restaurant
Ishin Bundesallee,52.4940529,13.3313956,N/A,"Bundesallee 203, 10717 Berlin, Germany",restaurant
Trattoria a muntagnola,52.4987769,13.3440829,N/A,"Fuggerstraße 27, 10777 Berlin, Germany",restaurant
Bleibergs,52.50027929999999,13.3366652,N/A,"Nürnberger Str. 45a, 10789 Berlin, Germany",cafe
Saigon Com Nieu,52.4985449,13.3572662,N/A,"Bülowstraße 9, 10783 Berlin, Germany",restaurant
Sakura Restaurant,52.5024639,13.3511129,N/A,"Kurfürstenstraße 126, 10785 Berlin, Germany",restaurant
Indisches restaurant Maharadscha,52.4987362,13.3450563,N/A,"Fuggerstraße 21, 10777 Berlin, Germany",restaurant
Suksan,52.50433990000001,13.3424447,N/A,"Ansbacher Str. 4, 10787 Berlin, Germany",restaurant
+39 Piùtrentanove,52.48976889999999,13.3795184,N/A,"Möckernstrasse 73A, 10965 Berlin, Germany",restaurant
Hisar fresh food,52.49294279999999,13.3687721,N/A,"Yorckstraße 49, 10965 Berlin, Germany",meal_takeaway
Elefant,52.4990554,13.3453729,N/A,"Fuggerstraße 18, 10777 Berlin, Germany",restaurant
Trattoria Belmonte,52.4928995,13.3474945,N/A,"Schwäbische Str. 5, 10781 Berlin, Germany",restaurant
I due Emigranti,52.4865408,13.3515575,N/A,"Belziger Str. 38, 10823 Berlin, Germany",restaurant
Taverna Hellas,52.4913403,13.3261534,N/A,"Güntzelstraße 19, 10717 Berlin, Germany",restaurant
Restaurant DIE QUADRIGA,52.5006447,13.3336795,N/A,"Eislebener Str. 14, 10789 Berlin, Germany",restaurant
Dalmacija Grill,52.503493,13.365702,N/A,"Potsdamer Str. 84, 10785 Berlin, Germany",restaurant
Shayan,52.4944269,13.3540837,N/A,"Goltzstraße 23, 10781 Berlin, Germany",restaurant
Ponte - Ristorante Italiano,52.49599359999999,13.3388145,N/A,"Regensburger Str. 5, 10777 Berlin, Germany",restaurant
Mangia E Bevi,52.4874303,13.3493078,N/A,"Wartburgstr. 8, 10823 Berlin, Germany",restaurant
Sabor Latino,52.48600560000001,13.3298521,N/A,"Badensche Str. 35, 10715 Berlin, Germany",restaurant
Winterfeld,52.49685509999999,13.3513253,N/A,"Winterfeldtstraße 58, 10781 Berlin, Germany",restaurant
Ristorante Café Aroma,52.4900879,13.3693657,N/A,"Hochkirchstraße 8, 10829 Berlin, Germany",meal_takeaway
Claudios Ars Vivendi,52.49082999999999,13.32515,N/A,"Holsteinische Str. 18, 10717 Berlin, Germany",restaurant
Limayra,52.4976729,13.3546251,N/A,"Maaßenstraße 11, 10777 Berlin, Germany",restaurant
Donath & Roch,52.4962598,13.342986,N/A,"Motzstraße 54, 10777 Berlin, Germany",restaurant
Pinelli,52.4792115,13.34996,N/A,"Ebersstraße 67, 10827 Berlin, Germany",restaurant
Amadeus,52.4896579,13.359977,N/A,"Hauptstraße 158, 10827 Berlin, Germany",travel_agency
Café Kalwil Berlin,52.4978028,13.3476972,N/A,"Motzstraße 30, 10777 Berlin, Germany",cafe
Belmundo - Café & Weinbar,52.4971782,13.3554223,N/A,"Winterfeldtstraße 36, 10781 Berlin, Germany",cafe
"Trattoria Pizzeria ""Punto e Virgola""",52.4947324,13.3382653,N/A,"Motzstraße 68, 10777 Berlin, Germany",restaurant
Phojito,52.4940922,13.3536268,N/A,"Goltzstraße 34, 10781 Berlin, Germany",restaurant
Avarus Berlin - Swingers Club,52.55099609999999,13.3540161,N/A,"Seestraße 50, 13347 Berlin, Germany",night_club
Eschenbräu,52.5434732,13.3594853,N/A,"Triftstraße 67, 13353 Berlin, Germany",bar
Zum Magendoktor,52.54408230000001,13.3693421,N/A,"Reinickendorfer Str. 111, 13347 Berlin, Germany",bar
Ariston Taverna Hellas Berlin,52.5582153,13.3657262,N/A,"Markstraße 20, 13409 Berlin, Germany",bar
Café Sterlitz,52.54901940000001,13.348447,N/A,"Seestraße 104, 13353 Berlin, Germany",bar
Gambrinus Eck,52.5519159,13.3618423,N/A,"Liebenwalder Str. 46, 13347 Berlin, Germany",bar
Fredericks - Café & Bar,52.55046669999999,13.349201,N/A,"Cornelius-Fredericks-Str. 10, 13351 Berlin, Germany",bar
Valle dei Templi,52.5476898,13.3510173,N/A,"Brüsseler Str. 10, 13353 Berlin, Germany",restaurant
One Africa Restaurant & Lounge,52.5558126,13.3430964,N/A,"Müllerstraße 62a, 13349 Berlin, Germany",bar
Shoo Bee Doo,52.5424466,13.3511097,N/A,"Wohnheim Augustenburger Platz, Luxemburger Str. 20c, 13353 Berlin, Germany",bar
JOKER,52.5409756,13.3515044,N/A,"Sprengelstraße 25B, 13353 Berlin, Germany",bar
Tipperary Berlin,52.5431452,13.3567396,N/A,"Triftstraße 58, 13353 Berlin, Germany",bar
Basalt,52.5506167,13.3608213,N/A,"Utrechter Str. 38, 13347 Berlin, Germany",bar
Freya Fuchs,52.5420287,13.3567716,N/A,"Tegeler Str. 34, 13353 Berlin, Germany",bar
BESTE Bar,52.5438758,13.360615,N/A,"Willdenowstraße 12A, 13353 Berlin, Germany",bar
Bar Solut,52.5503054,13.3636192,N/A,"Hochstädter Str. 11, 13347 Berlin, Germany",bar
Mon Rêve Café,52.5432529,13.3641547,N/A,"Müllerstraße 163B, 13353 Berlin, Germany",bar
MARS | Küche & Bar,52.54605,13.3663621,N/A,"Gerichtstraße 35, Seiteneingang, 13347 Berlin, Germany",restaurant
Albert's Restaurant,52.5640131,13.3287019,N/A,"Scharnweberstraße 16, 13405 Berlin, Germany",bar
Zaffke,52.5336094,13.3499596,N/A,"Rathenower Str. 44, 10559 Berlin, Germany",bar
Kallasch & - Moab Barprojekt,52.53293919999999,13.3365603,N/A,"Unionstraße 2, 10551 Berlin, Germany",bar
Heine Bar,52.532549,13.3429069,N/A,"Putlitzstraße 19, 10551 Berlin, Germany",bar
Café Dazwischen,52.5415766,13.3506585,N/A,"Torfstraße 16, 13353 Berlin, Germany",cafe
Zooma Lounge,52.5604834,13.3348145,N/A,"Müllerstraße 83, 13349 Berlin, Germany",bar
Café Bar Tirrée,52.5320233,13.3415634,N/A,"Birkenstraße 46, 10551 Berlin, Germany",restaurant
e-concierge Niederlassung,52.5321246,13.3446651,N/A,"Stephanstraße 41, 10559 Berlin, Germany",bar
Vagabund Brauerei,52.5479292,13.3493092,N/A,"Antwerpener Str. 3, 13353 Berlin, Germany",bar
AlbersWettboerse GmbH,52.54902790000001,13.3532782,N/A,"Brüsseler Str. 2, 13353 Berlin, Germany",bar
Klein Zaches,52.5471692,13.3513052,N/A,"Antwerpener Str. 43, 13353 Berlin, Germany",bar
Zum Schinken,52.5457729,13.3577797,N/A,"Luxemburger Str. 5, 13353 Berlin, Germany",bar
Winzling,52.55009,13.35534,N/A,"Amsterdamer Str. 5, 13347 Berlin, Germany",bar
Kunst- und Kulturverein Mastul e.V,52.55197929999999,13.3582565,N/A,"Liebenwalder Str. 33, 13347 Berlin, Germany",art_gallery
Alt-Wedding,52.5491006,13.3444717,N/A,"Kameruner Str. 19, 13351 Berlin, Germany",bar
Alte Liebe,52.55045579999999,13.3484812,N/A,"Cornelius-Fredericks-Str. 11, 13351 Berlin, Germany",bar
Buchte V. Crille,52.55043009999999,13.3485928,N/A,"Cornelius-Fredericks-Str. 11, 13351 Berlin, Germany",bar
Blase's Sportsbar,52.5536804,13.3445405,N/A,"Transvaalstraße 44, 13351 Berlin, Germany",bar
Zur Gemütlichen Ecke,52.5541327,13.3396668,N/A,"Otawistraße 21, 13351 Berlin, Germany",bar
Cocktailbar AlmiSu,52.55289189999999,13.3472377,N/A,"Müllerstraße 126, 13349 Berlin, Germany",bar
Sport Pub Two,52.55167840000001,13.3489005,N/A,"Kameruner Str. 99, 13351 Berlin, Germany",bar
Liquid Bar,52.5540505,13.3452139,N/A,"13351 Berlin, Germany",bar
Brüsseler Tor,52.54615889999999,13.348208,N/A,"Brüsseler Str. 21, 13353 Berlin, Germany",bar
Seetank,52.5490124,13.3500192,N/A,"Seestraße 37, 13353 Berlin, Germany",bar
UMI x Gendai No Kaishaku Restaurant,52.5536578,13.3467468,N/A,"Müllerstraße 55a, 13349 Berlin, Germany",bar
City-Bar Wedding,52.5525254,13.3489008,N/A,"Müllerstraße 49B, 13349 Berlin, Germany",bar
Café Limon,52.5548455,13.3438297,N/A,"Müllerstraße 116, 13349 Berlin, Germany",cafe
Chez Charly,52.5470885,13.3500858,N/A,"Brüsseler Str., 13353 Berlin, Germany",bar
The MOOS,52.55042760000001,13.3508843,N/A,"Seestraße 95, 13353 Berlin, Germany",bar
Granada Café-Bar-Lounge-Restaurant,52.5503508,13.3509334,N/A,"Seestraße 95, 13353 Berlin, Germany",bar
Schneeeule Salon für Berliner Bierkultur,52.5553102,13.3441805,N/A,"Ofener Str. 1, 13349 Berlin, Germany",bar
Krissi,52.5470053,13.3507092,N/A,"Antwerpener Str. 8, 13353 Berlin, Germany",bar
Kiki Partykneipe,52.55562829999999,13.342247,N/A,"Müllerstraße 113, 13349 Berlin, Germany",bar
Rici's Intershop,52.5554928,13.3436649,N/A,"Müllerstraße 61, 13349 Berlin, Germany",bar
LAVIDA BAR,52.55553679999999,13.3434722,N/A,"Müllerstraße 61A, 13349 Berlin, Germany",bar
Happy Sportsbar,52.5555742,13.3433605,N/A,"Müllerstraße 61A, 13349 Berlin, Germany",bar
Drehmoment,52.5554881,13.3446007,N/A,"Glasgower Str. 29, 13349 Berlin, Germany",bar
Kneipen Kult Berlin,52.555698,13.3442447,N/A,"Ofener Str. 14, 13349 Berlin, Germany",bar
Moje Bar,52.5482799,13.3520183,N/A,"Brüsseler Str. 6, 13353 Berlin, Germany",bar
Brüsseler Eck,52.54852529999999,13.3523866,N/A,"Brüsseler Str. 5, 13353 Berlin, Germany",bar
Hut Ab,52.5556266,13.3467247,N/A,"Barfusstraße 13, 13349 Berlin, Germany",bar
Kutscher-Kneipe,52.54836390000001,13.3527895,N/A,"Brüsseler Str. 50, 13353 Berlin, Germany",bar
Arema,52.5322706,13.3423016,N/A,"Birkenstraße 30, 10551 Berlin, Germany",cafe
JET Tankstelle,52.56120000000001,13.3242,N/A,"Kurt-Schumacher-Damm 36, 13405 Berlin, Germany",gas_station
Taverna Hellas Wedding,52.5497965,13.3579401,N/A,"Utrechter Str. 22, 13347 Berlin, Germany",restaurant
Naveena Path,52.541866,13.357426,N/A,"Tegeler Str. 22, 13353 Berlin, Germany",restaurant
Gaststätte Deichgraf,52.53981700000001,13.352171,N/A,"Nordufer 10, 13353 Berlin, Germany",restaurant
Eschenbräu,52.5434732,13.3594853,N/A,"Triftstraße 67, 13353 Berlin, Germany",bar
Löwenzahn Cash & Carry GmbH,52.5362466,13.3499751,N/A,"Ellen-Epstein-Straße 10/12, 10589 Berlin, Germany",grocery_or_supermarket
Lichtblick,52.5325523,13.341115,N/A,"Birkenstraße 33, 10551 Berlin, Germany",restaurant
Ariston Taverna Hellas Berlin,52.5582153,13.3657262,N/A,"Markstraße 20, 13409 Berlin, Germany",meal_takeaway
Catering-Bufett-Service-Berlin,52.56464769999999,13.3540175,N/A,"Schäferstübchen, Grindelwaldweg 2, 13407 Berlin, Germany",restaurant
McDonald´s,52.56054750000001,13.3636894,N/A,"Markstraße 16, 13409 Berlin, Germany",restaurant
Corallo,52.5475678,13.3540513,N/A,"Ostender Str. 5, 13353 Berlin, Germany",restaurant
Gambrinus Eck,52.5519159,13.3618423,N/A,"Liebenwalder Str. 46, 13347 Berlin, Germany",bar
Bantou Village,52.5517674,13.3484928,N/A,"Kameruner Str. 2, 13351 Berlin, Germany",restaurant
Restaurant L' Escargot,52.5465716,13.3496911,N/A,"Brüsseler Str. 39, 13353 Berlin, Germany",restaurant
Safran Berlin,52.54677019999999,13.349181,N/A,"Brüsseler Str. 17, 13353 Berlin, Germany",meal_takeaway
Imren Grill,52.5510847,13.3504389,N/A,"Müllerstraße 134, 13349 Berlin, Germany",restaurant
Sedir | Cafe & Restaurant,52.55486399999999,13.344626,N/A,"Müllerstraße 59B, 13349 Berlin, Germany",meal_delivery
Ristorante Pizzeria Sole mio,52.55553219999999,13.3418161,N/A,"Otawistraße 5, 13351 Berlin, Germany",restaurant
Valle dei Templi,52.5476898,13.3510173,N/A,"Brüsseler Str. 10, 13353 Berlin, Germany",restaurant
Salone Market,52.54893,13.3518,N/A,"Genter Str. 66, 13353 Berlin, Germany",restaurant
One Africa Restaurant & Lounge,52.5558126,13.3430964,N/A,"Müllerstraße 62a, 13349 Berlin, Germany",bar
Rebel Room,52.55094289999999,13.3521653,N/A,"Seestraße 93, 13347 Berlin, Germany",restaurant
Spice,52.54160249999999,13.3491253,N/A,"Föhrer Str. 11, 13353 Berlin, Germany",restaurant
geh Veg,52.54192819999999,13.3505411,N/A,"Triftstraße 37, 13353 Berlin, Germany",restaurant
Risa Chicken,52.54759079999999,13.3574824,N/A,"Müllerstraße 30, 13353 Berlin, Germany",restaurant
Thai Son Imbiss Berlin,52.5406607,13.350858,N/A,"Torfstraße 24, 13353 Berlin, Germany",meal_takeaway
Tipperary Berlin,52.5431452,13.3567396,N/A,"Triftstraße 58, 13353 Berlin, Germany",cafe
Nazar-Grill,52.5483388,13.3599877,N/A,"Nazarethkirchstraße 48, 13347 Berlin, Germany",meal_takeaway
Shikgoo,52.542699,13.356992,N/A,"Tegeler Str. 25, 13353 Berlin, Germany",restaurant
COZYMAZU,52.5418297,13.355968,N/A,"Sprengelstraße 39, 13353 Berlin, Germany",cafe
Alles Perfetto ... bei Petersen,52.54609139999999,13.3603121,N/A,"Müllerstraße 25, 13353 Berlin, Germany",restaurant
Lino's Barbecue,52.5493708,13.3616314,N/A,"Malplaquetstraße 43, 13347 Berlin, Germany",restaurant
Osteria da Pino,52.5441397,13.3602497,N/A,"Willdenowstraße 12, 13353 Berlin, Germany",restaurant
Strudelka,52.5425066,13.3591687,N/A,"Sparrstraße 18, 13353 Berlin, Germany",cafe
Hot Burger,52.5448185,13.3611307,N/A,"Triftstraße 1, 13353 Berlin, Germany",restaurant
Schäfer - Café Bar Restaurant,52.5525637,13.3621628,N/A,"Groninger Str. 22, 13347 Berlin, Germany",restaurant
Maide Manti - Halal Food Production,52.5485032,13.3628896,N/A,"Schulstraße 18, 13347 Berlin, Germany",restaurant
Sam Yuk Gu,52.5546939,13.3611505,N/A,"Seestraße 71, 13347 Berlin, Germany",restaurant
Stranero,52.5521869,13.363924,N/A,"Liebenwalder Str. 11, 13347 Berlin, Germany",restaurant
Fünf & Sechzig,52.5400406,13.3527717,N/A,"Torfstraße 9, 13353 Berlin, Germany",restaurant
Pizza Coach,52.5627042,13.3531056,N/A,"Aroser Allee 67, 13407 Berlin, Germany",meal_delivery
Mekan Grillhaus,52.543405,13.3640139,N/A,"Müllerstraße 163A, 13353 Berlin, Germany",restaurant
Mon Rêve Café,52.5432529,13.3641547,N/A,"Müllerstraße 163B, 13353 Berlin, Germany",bar
Kentucky Fried Chicken,52.56127069999999,13.3268429,N/A,"Kurt-Schumacher-Damm 25, 13405 Berlin, Germany",restaurant
Hak Bäckerei,52.55190890000001,13.3659773,N/A,"Hochstädter Str. 24, 13347 Berlin, Germany",bakery
Ernst Berlin Gastronomie GmbH,52.5482106,13.3663245,N/A,"Adolfstraße 19, 13347 Berlin, Germany",restaurant
MARS | Küche & Bar,52.54605,13.3663621,N/A,"Gerichtstraße 35, Seiteneingang, 13347 Berlin, Germany",restaurant
Café Schadé,52.5420881,13.3573846,N/A,"Tegeler Str. 23, 13353 Berlin, Germany",cafe
Falafel Dream 2010,52.543215,13.3653872,N/A,"Müllerstraße 14A, 13353 Berlin, Germany",restaurant
Halil’s Gemüse Kebap,52.56307779999999,13.3273133,N/A,"Kurt-Schumacher-Damm 1, 13405 Berlin, Germany",restaurant
Marktküche im Hamberger Großmarkt,52.5335936,13.3339537,N/A,"Erna-Samuel-Straße 13, 10551 Berlin, Germany",restaurant
Albert's Restaurant,52.5640131,13.3287019,N/A,"Scharnweberstraße 16, 13405 Berlin, Germany",bar
Ristorante-Pizzeria Gianni,52.5345412,13.353859,N/A,"Stephanstraße 67, 10559 Berlin, Germany",restaurant
Pamfilya Restaurant,52.546287,13.3584278,N/A,"Luxemburger Str. 1, 13353 Berlin, Germany",restaurant
ernst,52.5446886,13.3680205,N/A,"Gerichtstraße 54, 13347 Berlin, Germany",restaurant
Café Dazwischen,52.5415766,13.3506585,N/A,"Torfstraße 16, 13353 Berlin, Germany",cafe
Delphin Fisch & Steak,52.5322979,13.3437959,N/A,"Putlitzstraße 1, 10551 Berlin, Germany",restaurant
Crunch Kantine,52.53279060000001,13.333814,N/A,"Siemensstraße 16, 10551 Berlin, Germany",restaurant
Mr. HOANG,52.54505,13.36891,N/A,"Gerichtstraße 30, 13347 Berlin, Germany",restaurant
Easy Lodges Berlin,52.47999859999999,13.4178864,N/A,"Columbiadamm 160, 10965 Berlin, Germany",campground
Freiraum Hostel & Guesthouse,52.4982863,13.4288035,N/A,"Wiener Straße 14, 10999 Berlin, Germany",cafe
Ficken 3000,52.48860860000001,13.422583,N/A,"Urbanstraße 70, 10967 Berlin, Germany",night_club
B-Lage,52.4737063,13.4512729,N/A,"Mareschstraße 1, 12055 Berlin, Germany",bar
Frollein Langner,52.47393389999999,13.4252183,N/A,"Weisestraße 34, 12049 Berlin, Germany",cafe
Madonna Bar,52.4973019,13.4314465,N/A,"Wiener Straße 22, 10999 Berlin, Germany",bar
Astra Stube Neukölln,52.4844078,13.4328964,N/A,"Weichselstraße 63, 12043 Berlin, Germany",bar
Goldberg Bar Café Restaurant,52.4911197,13.4295366,N/A,"Reuterstraße 40, 12047 Berlin, Germany",restaurant
Froschkönig,52.4768757,13.4239211,N/A,"Weisestraße 17, 12049 Berlin, Germany",bar
The Black Lodge Berlin,52.4921349,13.4243918,N/A,"Sanderstraße 6, 12047 Berlin, Germany",bar
Das Gift,52.484075,13.4324361,N/A,"Donaustraße 119, 12043 Berlin, Germany",bar
Sux,52.4833253,13.4407113,N/A,"Weserstr. 55, 12045 Berlin, Germany",bar
Kindl Stuben,52.4824503,13.4379879,N/A,"Sonnenallee 92, 12045 Berlin, Germany",bar
Brauhaus Südstern,52.4883942,13.4104924,N/A,"Hasenheide 69, 10967 Berlin, Germany",restaurant
TiER,52.48478710000001,13.4376714,N/A,"Weserstr. 42, 12045 Berlin, Germany",bar
Ankerklause,52.49583619999999,13.4205592,N/A,"Kottbusser Damm 104, 10967 Berlin, Germany",restaurant
Peppi Guggenheim International,52.4841768,13.433171,N/A,"Weichselstraße 7, 12043 Berlin, Germany",bar
De Noantri,52.4933307,13.445807,N/A,"Kiefholzstraße 1, 12435 Berlin, Germany",bar
Wild At Heart,52.497509,13.4309406,N/A,"Wiener Straße 20, 10999 Berlin, Germany",bar
Bar11,52.49740000000001,13.43116,N/A,"Wiener Straße 21, 10999 Berlin, Germany",bar
Theater im Keller,52.4884295,13.427717,N/A,"nahe Hermannplatz, Weserstr. 211, 12047 Berlin, Germany",bar
Fabelhaft bar,52.4922817,13.4208923,N/A,"Schönleinstraße 6, 10967 Berlin, Germany",bar
NEST Schank- und Speisewirtschaft,52.4972294,13.4390859,N/A,"Görlitzer Str. 52, 10997 Berlin, Germany",restaurant
Bierbaum 2,52.4827527,13.4375386,N/A,"Sonnenallee 86, 12045 Berlin, Germany",bar
Gaststätte Zum Heinzelmann,52.473823,13.4422569,N/A,"Karl-Marx-Platz 14, 12043 Berlin, Germany",bar
Mahlower Klause,52.4797424,13.4234464,N/A,"Weisestraße 63, 12049 Berlin, Germany",bar
Donau115,52.48351940000001,13.4335,N/A,"Donaustraße 115, 12043 Berlin, Germany",bar
Oblomov Kreuzkoelln,52.4899923,13.4260483,N/A,"Lenaustraße 7, 12047 Berlin, Germany",bar
Biergarten Jockel,52.4919277,13.4385616,N/A,"Ratiborstraße 14c, 10999 Berlin, Germany",bar
ORi - Forum künstlerische Bildmedien,52.48857999999999,13.42819,N/A,"Friedelstraße 8, 12047 Berlin, Germany",art_gallery
Zum Magendoktor,52.47395539999999,13.4506549,N/A,"Mareschstraße 19, 12055 Berlin, Germany",bar
Bei Schlawinchen,52.4926832,13.4217161,N/A,"Schönleinstraße 34, 10967 Berlin, Germany",bar
Loophole,52.4806977,13.4329532,N/A,"Boddinstraße 60, 12053 Berlin, Germany",bar
SchwuZ,52.4794165,13.4337682,N/A,"Rollbergstraße 26, 12053 Berlin, Germany",night_club
Klunkerkranich,52.482195,13.4318524,N/A,"Karl-Marx-Straße 66, 12043 Berlin, Germany",park
Velvet,52.4789825,13.4384567,N/A,"Ganghoferstraße 1, 12043 Berlin, Germany",bar
Prachtwerk,52.4790697,13.4388571,N/A,"Ganghoferstraße 2, 12043 Berlin, Germany",bar
Café Tschüsch,52.48407880000001,13.4366269,N/A,"Fuldastraße 12, 12045 Berlin, Germany",cafe
jaja,52.48421579999999,13.4331469,N/A,"Weichselstraße 7, 12043 Berlin, Germany",bar
Tennis Bar,52.4810846,13.4292706,N/A,"Reuterstraße 95, 12053 Berlin, Germany",bar
Bridgeclub Gegenspiel Neukölln,52.48401740000001,13.4392493,N/A,"Weserstr. 50, 12045 Berlin, Germany",bar
Mendy and Edeltraut,52.48476789999999,13.4378326,N/A,"Weserstr. 43, 12045 Berlin, Germany",bar
Weser 58,52.4828982,13.4415177,N/A,"Weserstr. 58, 12045 Berlin, Germany",bar
Alaska Bar,52.4829207,13.4287199,N/A,"Reuterstraße 85, 12053 Berlin, Germany",bar
o.T. Projektraum,52.4858285,13.4347111,N/A,"Weichselstraße 55, 12045 Berlin, Germany",bar
Beuster,52.4859229,13.4354455,N/A,"Weserstr. 32, 12045 Berlin, Germany",restaurant
Kachellounge 54,52.4859506,13.4349651,N/A,"Weichselstraße 54, 12045 Berlin, Germany",bar
Dr To's,52.4859844,13.4350335,N/A,"Weichselstraße 54, 12045 Berlin, Germany",restaurant
MUTED HORN,52.4806732,13.4262815,N/A,"Flughafenstraße 49, 12053 Berlin, Germany",liquor_store
"Sonderbar Mazury, Polnische Bar",52.48479,13.42712,N/A,"Karl-Marx-Straße 20, 12043 Berlin, Germany",bar
Albers Wettboerse GmbH,52.48178019999999,13.4243988,N/A,"Hermannstraße 30, 12049 Berlin, Germany",bar
Wansh,52.4876101,13.4314336,N/A,"Pannierstraße 54, 12047 Berlin, Germany",bar
SOULCAT Music Bar,52.4879662,13.4318091,N/A,"Pannierstraße 53, 12047 Berlin, Germany",bar
Alter Roter Löwe Rein,52.4756832,13.4432358,N/A,"Richardstraße, 12043 Berlin, Germany",bar
m|a - feine Kost,52.4759321,13.4262723,N/A,"Kienitzer Str. 93, 12049 Berlin, Germany",cafe
KADUKA,52.48808700000001,13.430036,N/A,"Weserstr. 207, 12047 Berlin, Germany",bar
Wildenbruch,52.48637129999999,13.4460067,N/A,"Wildenbruchstr. 68, 12045 Berlin, Germany",bar
balera Weinhandlung,52.473589,13.4417472,N/A,"Karl-Marx-Platz 6, 12043 Berlin, Germany",bar
cafete bar,52.47388549999999,13.4426487,N/A,"Karl-Marx-Platz 18, 12043 Berlin, Germany",bar
Kulisse - Cocktails & Tapas,52.48842730000001,13.4276612,N/A,"Weserstr. 211, 12047 Berlin, Germany",bar
Easy Lodges Berlin,52.47999859999999,13.4178864,N/A,"Columbiadamm 160, 10965 Berlin, Germany",campground
Estrel Berlin,52.4734211,13.4589572,N/A,"Sonnenallee 225, 12057 Berlin, Germany",art_gallery
Freiraum Hostel & Guesthouse,52.4982863,13.4288035,N/A,"Wiener Straße 14, 10999 Berlin, Germany",cafe
Restaurant VOLT,52.4936673,13.4299587,N/A,"Paul-Lincke-Ufer 21, 10999 Berlin, Germany",restaurant
Indian Dhaba Mira,52.490172,13.4339259,N/A,"Pannierstraße 40, 12047 Berlin, Germany",meal_takeaway
Louis Café-Restaurant,52.47439269999999,13.4452572,N/A,"Richardpl. 5, 12055 Berlin, Germany",restaurant
Berlinburger International,52.486484,13.4309501,N/A,"Pannierstraße 5, 12047 Berlin, Germany",meal_takeaway
Cafe Rix,52.4770215,13.4395352,N/A,"Karl-Marx-Straße 141, 12043 Berlin, Germany",meal_takeaway
Steel Shark Sushi-Bar,52.4857173,13.4262925,N/A,"Karl-Marx-Straße 13, 12043 Berlin, Germany",restaurant
Vux,52.4720917,13.442502,N/A,"Wipperstraße 14, 12055 Berlin, Germany",cafe
Café Jacques,52.49419269999999,13.4254616,N/A,"Maybachufer 14, 12047 Berlin, Germany",cafe
Quick Burger Berlin,52.4855582,13.4483373,N/A,"Harzer Str. 88, 12059 Berlin, Germany",meal_takeaway
Goldberg Bar Café Restaurant,52.4911197,13.4295366,N/A,"Reuterstraße 40, 12047 Berlin, Germany",restaurant
Blume an der Hasenheide,52.4817438,13.4213306,N/A,"Fontanestraße 32, 12049 Berlin, Germany",cafe
Villa Rixdorf,52.4742925,13.4447351,N/A,"Richardpl. 6, 12055 Berlin, Germany",cafe
from Hanoi with Love,52.4714821,13.4293708,N/A,"Hermannstraße 176, 12051 Berlin, Germany",restaurant
Lavanderia Vecchia,52.4815206,13.4264152,N/A,"Flughafenstraße 46, 12053 Berlin, Germany",restaurant
Hua Li Du,52.47777780000001,13.4475,N/A,"Sonnenallee 164, 12059 Berlin, Germany",restaurant
Kindl Stuben,52.4824503,13.4379879,N/A,"Sonnenallee 92, 12045 Berlin, Germany",bar
Brauhaus Südstern,52.4883942,13.4104924,N/A,"Hasenheide 69, 10967 Berlin, Germany",restaurant
osteria sippi,52.49227449999999,13.4255013,N/A,"Sanderstraße 10A, 12047 Berlin, Germany",restaurant
Ankerklause,52.49583619999999,13.4205592,N/A,"Kottbusser Damm 104, 10967 Berlin, Germany",restaurant
McDonald's,52.48219510000001,13.4319423,N/A,"Karl-Marx-Straße 66, 12043 Berlin, Germany",restaurant
De Noantri,52.4933307,13.445807,N/A,"Kiefholzstraße 1, 12435 Berlin, Germany",bar
Restaurant Hasenheide,52.48783899999999,13.419714,N/A,"Hasenheide 18, 10967 Berlin, Germany",restaurant
Tiki Heart Cafe,52.49751060000001,13.4309508,N/A,"Wiener Straße 20, 10999 Berlin, Germany",restaurant
Horváth,52.496461,13.4208765,N/A,"Paul-Lincke-Ufer 44a, 10999 Berlin, Germany",restaurant
leuchtstoff - Kaffeebar und Bakery,52.4681236,13.4324987,N/A,"Siegfriedstraße 18, 12051 Berlin, Germany",cafe
Theater im Keller,52.4884295,13.427717,N/A,"nahe Hermannplatz, Weserstr. 211, 12047 Berlin, Germany",bar
Gasthaus Valentin am Südstern,52.4889056,13.4111401,N/A,"Hasenheide 49, 10967 Berlin, Germany",restaurant
Musashi,52.49516999999999,13.42109,N/A,"Kottbusser Damm 102, 10967 Berlin, Germany",restaurant
Shaan,52.4739709,13.4468509,N/A,"Richardpl. 20, 12055 Berlin, Germany",restaurant
Defne,52.4953624,13.4177063,N/A,"Planufer 92C, 10967 Berlin, Germany",restaurant
NEST Schank- und Speisewirtschaft,52.4972294,13.4390859,N/A,"Görlitzer Str. 52, 10997 Berlin, Germany",restaurant
Gasthaus Figl,52.4903991,13.4174689,N/A,"Urbanstraße 47, 10967 Berlin, Germany",restaurant
Mindful Living Berlin,52.4873985,13.4216284,N/A,"Hasenheide 12, 10967 Berlin, Germany",restaurant
Bei Onkel,52.4825889,13.4347,N/A,"Fuldastraße 4-5, 12043 Berlin, Germany",meal_takeaway
Berlin Tantuni,52.4810459,13.4252675,N/A,"Hermannstraße 228, 12049 Berlin, Germany",restaurant
Brot und Brötchen,52.47756320000001,13.4388532,N/A,"Karl-Marx-Straße 131, 12043 Berlin, Germany",bakery
Pizza Delizia,52.4871726,13.4226888,N/A,"Hasenheide 7, 10967 Berlin, Germany",meal_takeaway
Star Pizza stone oven,52.4704567,13.429202,N/A,"Hermannstraße 93, 12051 Berlin, Germany",meal_delivery
Türkiyem Grill,52.4842994,13.4284595,N/A,"Karl-Marx-Straße 30, 12043 Berlin, Germany",restaurant
Biergarten Jockel,52.4919277,13.4385616,N/A,"Ratiborstraße 14c, 10999 Berlin, Germany",bar
Hindi,52.4892158,13.4514827,N/A,"Plesser Str. 6, 12435 Berlin, Germany",restaurant
ORi - Forum künstlerische Bildmedien,52.48857999999999,13.42819,N/A,"Friedelstraße 8, 12047 Berlin, Germany",art_gallery
Bei Schlawinchen,52.4926832,13.4217161,N/A,"Schönleinstraße 34, 10967 Berlin, Germany",bar
Tandoori Palace + lieferservice,52.4821464,13.4356034,N/A,"Donaustraße 27, 12043 Berlin, Germany",restaurant
Ristorante Babbo bar,52.4818931,13.4368007,N/A,"Donaustraße 103, 12043 Berlin, Germany",restaurant
Imren Grill,52.482101,13.4339543,N/A,"Karl-Marx-Straße 75, 12043 Berlin, Germany",restaurant
La Bolognina,52.4825118,13.4356857,N/A,"Donaustraße 107, 12043 Berlin, Germany",restaurant
Klunkerkranich,52.482195,13.4318524,N/A,"Karl-Marx-Straße 66, 12043 Berlin, Germany",night_club
Ristorante Monte Cristo,52.4816707,13.4309397,N/A,"Flughafenstraße 18, 12053 Berlin, Germany",restaurant
Rixbox Espresso & Food,52.4789391,13.4379411,N/A,"Richardstraße 2, 12043 Berlin, Germany",cafe
Café Tschüsch,52.48407880000001,13.4366269,N/A,"Fuldastraße 12, 12045 Berlin, Germany",cafe
jaja,52.48421579999999,13.4331469,N/A,"Weichselstraße 7, 12043 Berlin, Germany",bar
Kalaja Grillhaus Berlin,52.4822434,13.4406057,N/A,"Wildenbruchstr. 89, 12045 Berlin, Germany",restaurant
Nudelbude,52.4843126,13.4328374,N/A,"Weichselstraße 64, 12043 Berlin, Germany",restaurant
Bottega N.6,52.4782075,13.4387453,N/A,"Richardstraße 6, 12043 Berlin, Germany",restaurant
Fischtheke Berlin,52.48108329999999,13.4284599,N/A,"Flughafenstraße 35, 12053 Berlin, Germany",restaurant
CRAZY BASTARD KITCHEN,52.4835709,13.4407992,N/A,"Weserstr. 168, 12045 Berlin, Germany",restaurant
Hotel Palace Berlin,52.50494609999999,13.3389074,N/A,"Budapester Str. 45, 10787 Berlin, Germany",spa
Park Plaza Berlin,52.4997337,13.322504,N/A,"Lietzenburger Str. 85, 10719 Berlin, Germany",gym
PLAZA INN Berlin-Charlottenburg,52.52363129999999,13.3064335,N/A,"Sömmeringstraße 24-26, 10589 Berlin, Germany",bar
Pestana Berlin Tiergarten,52.5084409,13.348759,N/A,"Stülerstraße 6, 10787 Berlin, Germany",spa
Park Plaza Berlin Kudamm,52.5014182,13.3312949,N/A,"Joachimsthaler Str. 28-29, 10719 Berlin, Germany",bar
25hours Hotel Bikini Berlin,52.5057207,13.337689,N/A,"Budapester Str. 40, 10787 Berlin, Germany",bar
Restaurant Walhalla,52.5242599,13.3393541,N/A,"Krefelder Str. 6, 10555 Berlin, Germany",restaurant
Ottenthal,52.50540059999999,13.3269158,N/A,"Kantstraße 153, 10623 Berlin, Germany",bar
A-Trane,52.5072391,13.3199577,N/A,"Ecke Pestalozzistrasse am Savigny-Platzz, Bleibtreustraße 1, 10623 Berlin, Germany",night_club
Schwarzes Cafe,52.5055292,13.3242208,N/A,"Kantstraße 148, 10623 Berlin, Germany",bar
Lemke am Schloss,52.5199784,13.2998062,N/A,"Luisenpl. 1, 10585 Berlin, Germany",bar
Schleusenkrug,52.5112761,13.3358521,N/A,"Müller-Breslau-Straße 14b, 10623 Berlin, Germany",cafe
Bar moechtegern,52.50989329999999,13.3141989,N/A,"Leibnizstraße 87, 10625 Berlin, Germany",night_club
Paris Bar,52.5054309,13.326345,N/A,"Kantstraße 152, 10623 Berlin, Germany",restaurant
Arminius Market Hall,52.5276885,13.3383946,N/A,"Arminiusstraße 2-4, 10551 Berlin, Germany",bar
Marooush,52.50089,13.3213814,N/A,"Knesebeckstraße 48, 10719 Berlin, Germany",bar
Thomas-Eck Berlin | Deutsche Küche,52.5080556,13.3091667,N/A,"Pestalozzistraße 25, 10627 Berlin, Germany",bar
Brasserie Le Paris,52.50209899999999,13.3246431,N/A,"Kurfürstendamm 211, 10719 Berlin, Germany",bar
Mauerwerk,52.52583,13.33287,N/A,"Zwinglistraße 7, 10555 Berlin, Germany",bar
Zeitlos Berlin,52.505405,13.3178077,N/A,"Schlüterstraße 60, 10625 Berlin, Germany",bar
Lasergame Berlin GmbH,52.5244495,13.307049,N/A,"Nordhauser Straße, Öffnung nur nach Buchung, im Hof 26, 10589 Berlin, Germany",amusement_park
Spice India Restaurant,52.49937490000001,13.3249791,N/A,"Uhlandstraße 161, 10719 Berlin, Germany",meal_delivery
Club Lady Nina,52.5040252,13.318083,N/A,"Niebuhrstraße 76, 10629 Berlin, Germany",night_club
Gainsbourg Le Club - Bar Americain,52.5048885,13.3243591,N/A,"Jeanne-Mammen-Bogen 576/577, 10623 Berlin, Germany",bar
Restaurant El Dorado,52.50182299999999,13.3224708,N/A,"Kurfürstendamm 203, 10719 Berlin, Germany",bar
King Karaoke Berlin,52.5055437,13.3135713,N/A,"Leibnizstraße 68, 10625 Berlin, Germany",bar
Hefner Bar,52.5056422,13.3232725,N/A,"Kantstraße 146, 10623 Berlin, Germany",bar
Royal Bar,52.49894,13.32256,N/A,"Pfalzburger Str. 5, 10719 Berlin, Germany",bar
Restaurant WEINROT Berlin,52.50618189999999,13.3276492,N/A,"Fasanenstraße 9-10, 10623 Berlin, Germany",restaurant
Suksan,52.50433990000001,13.3424447,N/A,"Ansbacher Str. 4, 10787 Berlin, Germany",bar
Bar Carlitos,52.50214630000001,13.3048465,N/A,"Sybelstraße 16, 10629 Berlin, Germany",bar
Enoteca L'Angolino,52.5084749,13.3231544,N/A,"Knesebeckstraße 92, 10623 Berlin, Germany",liquor_store
The little Philharmony,52.4996685,13.3301547,N/A,"Schaperstraße 14, 10719 Berlin, Germany",bar
Factory Bar,52.49973869999999,13.3223567,N/A,"Lietzenburger Str. 85, 10719 Berlin, Germany",restaurant
AndaLucia Tapasbar & Restaurant,52.5053464,13.3230945,N/A,"Savignypl. 2, 10623 Berlin, Germany",bar
Bellas Artes,52.4963002,13.3225007,N/A,"Pfalzburger Str. 72A, 10719 Berlin, Germany",bar
Irish Pub,52.50447959999999,13.3383409,N/A,"Tauentzienstraße 9-12, 10789 Berlin, Germany",bar
Zwiebelfisch,52.5065387,13.3215398,N/A,"Savignypl. 7, 10623 Berlin, Germany",bar
Alt-Berliner-Biersalon GmbH,52.5032162,13.3301769,N/A,"Kurfürstendamm 225-226, 10719 Berlin, Germany",bar
Sushi Berlin,52.5077039,13.323528,N/A,"Knesebeckstraße 88, 10623 Berlin, Germany",meal_takeaway
SAUSALITOS,52.5051229,13.3284813,N/A,"Fasanenstraße 81, 10623 Berlin, Germany",bar
Wilhelm Hoeck 1892,52.5139254,13.3051183,N/A,"Wilmersdorfer Str. 149, 10585 Berlin, Germany",restaurant
Tiergartenquelle,52.5151878,13.3369127,N/A,"S-Bahnbogen 482, Bachstraße, 10555 Berlin, Germany",bar
alles GuT,52.5119185,13.2941752,N/A,"Horstweg 7, 14059 Berlin, Germany",bar
Wikinger-Eck,52.5212686,13.3306598,N/A,"Wikingerufer 6a, 10555 Berlin, Germany",bar
La tia Rica,52.50859689999999,13.3231327,N/A,"Knesebeckstraße 92, 10623 Berlin, Germany",bar
LimaLima Ristorantino,52.5087892,13.3182055,N/A,"Schlüterstraße 74, 10625 Berlin, Germany",bar
Rumpelkiste,52.5138196,13.312087,N/A,"Zillestraße 22, 10585 Berlin, Germany",bar
Schah en Schah,52.5065536,13.3161191,N/A,"Wielandstraße 45, 10625 Berlin, Germany",bar
Quasimodo,52.50586329999999,13.3284748,N/A,"Kantstraße 12A, 10623 Berlin, Germany",night_club
Auguste,52.5030094,13.3156045,N/A,"Mommsenstraße 61, 10629 Berlin, Germany",bar
Gaststätte Theaterklause,52.5056892,13.3290593,N/A,"Kantstraße 12, 10623 Berlin, Germany",bar
The Pearl,52.505224,13.3282612,N/A,"Fasanenstraße 81, 10623 Berlin, Germany",night_club
Restaurant Wartesaal,52.50557270000001,13.3296149,N/A,"Kantstraße 10, 10623 Berlin, Germany",bar
The Hat Bar Berlin,52.505,13.3291666,N/A,"Lotte-Lenya-Bogen 550, 10623 Berlin, Germany",bar
Van Gogh,52.5040424,13.324259,N/A,"Grolmanstraße 41-43, 10623 Berlin, Germany",bar
La Plaza,52.5084157,13.3091198,N/A,"Krumme Str. 38, 10627 Berlin, Germany",bar
Weinladen Schmidt Charlottenburg,52.5077028,13.3098352,N/A,"Pestalozzistraße 85, 10625 Berlin, Germany",liquor_store
tipico,52.51688919999999,13.3073288,N/A,"Otto-Suhr-Allee 105, 10585 Berlin, Germany",bar
NANTE Berliner Eckkneipe,52.5158204,13.3064458,N/A,"Haubachstraße 2, 10585 Berlin, Germany",bar
Hotel Palace Berlin,52.50494609999999,13.3389074,N/A,"Budapester Str. 45, 10787 Berlin, Germany",spa
Park Plaza Berlin,52.4997337,13.322504,N/A,"Lietzenburger Str. 85, 10719 Berlin, Germany",gym
PLAZA INN Berlin-Charlottenburg,52.52363129999999,13.3064335,N/A,"Sömmeringstraße 24-26, 10589 Berlin, Germany",lodging
Park Plaza Berlin Kudamm,52.5014182,13.3312949,N/A,"Joachimsthaler Str. 28-29, 10719 Berlin, Germany",lodging
Hotel Q! Berlin,52.5026622,13.3223135,N/A,"Knesebeckstraße 67, 10623 Berlin, Germany",lodging
AMERON Berlin ABION Spreebogen Waterside,52.5231051,13.3459069,N/A,"Alt-Moabit 99, 10559 Berlin, Germany",tourist_attraction
Hollywood Media Hotel Berlin,52.5014893,13.3213552,N/A,"Kurfürstendamm 202, 10719 Berlin, Germany",lodging
25hours Hotel Bikini Berlin,52.5057207,13.337689,N/A,"Budapester Str. 40, 10787 Berlin, Germany",lodging
NU RESTAURANT,52.5043867,13.3176009,N/A,"Schlüterstraße 55, 10629 Berlin, Germany",restaurant
Belmondo,52.5090466,13.3232022,N/A,"Knesebeckstraße 93, 10623 Berlin, Germany",restaurant
Restaurant Walhalla,52.5242599,13.3393541,N/A,"Krefelder Str. 6, 10555 Berlin, Germany",restaurant
Deutsche Oper Berlin,52.5119992,13.3083968,N/A,"Bismarckstraße 35, 10627 Berlin, Germany",tourist_attraction
12 Apostel Berlin,52.50526430000001,13.3206953,N/A,"Bleibtreustraße 49, 10623 Berlin, Germany",restaurant
Ottenthal,52.50540059999999,13.3269158,N/A,"Kantstraße 153, 10623 Berlin, Germany",bar
Hard Rock Cafe,52.5030902,13.3294058,N/A,"Kurfürstendamm 224, 10719 Berlin, Germany",restaurant
Schwarzes Cafe,52.5055292,13.3242208,N/A,"Kantstraße 148, 10623 Berlin, Germany",bar
Lemke am Schloss,52.5199784,13.2998062,N/A,"Luisenpl. 1, 10585 Berlin, Germany",bar
Enoiteca Il Calice,52.50215,13.31491,N/A,"Walter-Benjamin-Platz 4, 10629 Berlin, Germany",restaurant
Schleusenkrug,52.5112761,13.3358521,N/A,"Müller-Breslau-Straße 14b, 10623 Berlin, Germany",cafe
Satyam,52.5089378,13.3219914,N/A,"Goethestraße 5, 10623 Berlin, Germany",restaurant
Restaurant R 23,52.50136699999999,13.3328372,N/A,"Rankestraße 23, 10789 Berlin, Germany",restaurant
Rogacki,52.5129281,13.3053401,N/A,"Wilmersdorfer Str. 145/46, 10585 Berlin, Germany",meal_takeaway
Ristorante La Cantina Bleibtreustraße,52.5033508,13.3195707,N/A,"Bleibtreustraße 17, 10623 Berlin, Germany",restaurant
La Sepia,52.50332539999999,13.3369481,N/A,"Marburger Str. 2, 10789 Berlin, Germany",restaurant
Paris Bar,52.5054309,13.326345,N/A,"Kantstraße 152, 10623 Berlin, Germany",restaurant
Schnitzelei,52.519662,13.314517,N/A,"Röntgenstraße 7b, 10587 Berlin, Germany",restaurant
Arminius Market Hall,52.5276885,13.3383946,N/A,"Arminiusstraße 2-4, 10551 Berlin, Germany",supermarket
Cafe Hardenberg,52.50940300000001,13.32504,N/A,"Hardenbergstraße 10, 10623 Berlin, Germany",cafe
Marooush,52.50089,13.3213814,N/A,"Knesebeckstraße 48, 10719 Berlin, Germany",bar
Thomas-Eck Berlin | Deutsche Küche,52.5080556,13.3091667,N/A,"Pestalozzistraße 25, 10627 Berlin, Germany",bar
Brasserie Le Paris,52.50209899999999,13.3246431,N/A,"Kurfürstendamm 211, 10719 Berlin, Germany",bar
Mauerwerk,52.52583,13.33287,N/A,"Zwinglistraße 7, 10555 Berlin, Germany",bar
Jules Verne,52.5055615,13.317884,N/A,"Schlüterstraße 61, 10625 Berlin, Germany",restaurant
Pasta & Basta,52.5091663,13.3233273,N/A,"Knesebeckstraße 94, 10623 Berlin, Germany",restaurant
Pizza Max Berlin Charlottenburg,52.5122683,13.2974304,N/A,"Schloßstraße 34, 14059 Berlin, Germany",meal_takeaway
Café im Literaturhaus - Wintergarten,52.5021186,13.3267475,N/A,"Fasanenstraße 23, 10719 Berlin, Germany",restaurant
Ristorante Osteria Centrale,52.506412,13.3204599,N/A,"Bleibtreustraße 51, 10623 Berlin, Germany",restaurant
Hugos,52.5071348,13.3449058,N/A,"Budapester Str. 2, 10787 Berlin, Germany",restaurant
Restaurant Marjellchen,52.50316869999999,13.3177558,N/A,"Mommsenstraße 9, 10629 Berlin, Germany",restaurant
Da Giorgio,52.4975867,13.324671,N/A,"Uhlandstraße 153, 10719 Berlin, Germany",meal_delivery
Cassambalis,52.5034769,13.3240893,N/A,"Grolmanstraße 35, 10623 Berlin, Germany",restaurant
Sushi Mylan,52.5080993,13.3174756,N/A,"Schlüterstraße 15, 10625 Berlin, Germany",restaurant
Lubitsch,52.50446609999999,13.3201099,N/A,"Bleibtreustraße 47, 10623 Berlin, Germany",restaurant
Sachiko Sushi,52.50470139999999,13.323713,N/A,"Jeanne-Mammen-Bogen 584, 10623 Berlin, Germany",restaurant
Petrocelli,52.5025685,13.3233617,N/A,"Kurfürstendamm 36, 10719 Berlin, Germany",restaurant
McDonald's,52.5064921,13.3063356,N/A,"Kantstraße 111a, 10627 Berlin, Germany",restaurant
Tapas,52.5072064,13.3215616,N/A,"Grolmanstraße 52, 10623 Berlin, Germany",restaurant
Spice India Restaurant,52.49937490000001,13.3249791,N/A,"Uhlandstraße 161, 10719 Berlin, Germany",meal_delivery
Hasir Restaurant,52.50062519999999,13.3369987,N/A,"Nürnberger Str. 46, 10789 Berlin, Germany",restaurant
Vapiano,52.5028999,13.331525,N/A,"Augsburger Str. 43, 10789 Berlin, Germany",restaurant
Ristorante Rosati,52.5113544,13.3077935,N/A,"Bismarckstraße 88, 10627 Berlin, Germany",restaurant
CaliBocca Restaurant & Wine Bar,52.5038995,13.3168854,N/A,"Schlüterstraße 30, 10629 Berlin, Germany",restaurant
Restaurant El Dorado,52.50182299999999,13.3224708,N/A,"Kurfürstendamm 203, 10719 Berlin, Germany",bar
Rosario Steakhaus Berlin,52.526613,13.3307309,N/A,"Gotzkowskystraße 35, 10555 Berlin, Germany",meal_delivery
Biscotti,52.50764830000001,13.3114738,N/A,"Pestalozzistraße 88, 10625 Berlin, Germany",restaurant
Capone Restaurant,52.50157549999999,13.3213574,N/A,"Kurfürstendamm 202, 10719 Berlin, Germany",restaurant
Sagano,52.5001012,13.3135398,N/A,"Kurfürstendamm 182, 10707 Berlin, Germany",restaurant
Grosz,52.5011245,13.3180915,N/A,"Kurfürstendamm 193 194, 10707 Berlin, Germany",restaurant
Café Keese,52.5119444,13.3166667,N/A,"Bismarckstraße 108, 10625 Berlin, Germany",night_club
Restaurant Baba Angora,52.50403120000001,13.3168115,N/A,"Schlüterstraße 29, 10629 Berlin, Germany",restaurant
Hotel Steglitz International,52.45637869999999,13.3214237,N/A,"Steglitz Kreisel Turm, Albrechtstr. 2, 12165 Berlin, Germany",bar
Finnegan's Irish Pub,52.4580117,13.3294467,N/A,"Bergstraße 8, 12169 Berlin, Germany",bar
Celtic Cottage,52.4645239,13.3238667,N/A,"Markelstraße 13, 12163 Berlin, Germany",bar
LUNA SPORTSBAR,52.45855899999999,13.324978,N/A,"Düppelstraße 32, 12163 Berlin, Germany",bar
Sterntaler,52.4648232,13.3145802,N/A,"Schildhornstraße 64, 12163 Berlin, Germany",bar
Punta Sportsbar & Cafè,52.46380019999999,13.3309078,N/A,"Schöneberger Str. 8, 12163 Berlin, Germany",bar
GM 26,52.4643784,13.3261065,N/A,"Gutsmuthsstraße 26, 12163 Berlin, Germany",cafe
In-cognito Steglitz,52.4550502,13.3260342,N/A,"Albrechtstr. 14A, 12167 Berlin, Germany",bar
WeinBasis,52.455038,13.3245626,N/A,"Schützenstraße 3, 12165 Berlin, Germany",bar
Sky Cocktail Bar Steglitz,52.456519,13.32133,N/A,"Steglitz Kreisel Turm, Albrechtstr. 2, 12165 Berlin, Germany",bar
General Post Office (GPO),52.4612554,13.3181885,N/A,"Zimmermannstraße 22, 12163 Berlin, Germany",bar
Foersters Feine Biere,52.4665682,13.3219215,N/A,"Bornstraße 20, 12163 Berlin, Germany",bar
Statement The Kitchen,52.4701838,13.3342745,N/A,"Rheinstraße 60, 12159 Berlin, Germany",bar
WandelBar,52.4504807,13.3227246,N/A,"Birkbuschstraße 87, 12167 Berlin, Germany",night_club
Fränky,52.4697445,13.320255,N/A,"Laubacher Str. 10, 14197 Berlin, Germany",bar
Hoppegarten,52.4535491,13.3151709,N/A,"Schloßstraße 56, 12165 Berlin, Germany",restaurant
South Beer Garden,52.46083600000001,13.356189,N/A,"Priesterweg 10, 12157 Berlin, Germany",bar
LuLa Deli & Grill,52.472277,13.3348769,N/A,"Lauterstraße 14-15, 12159 Berlin, Germany",restaurant
Friedenauer Pub,52.47354669999999,13.3372934,N/A,"Stierstraße 22, 12159 Berlin, Germany",bar
Taunus Eck,52.4736345,13.3243917,N/A,"Taunusstraße 7, 12161 Berlin, Germany",bar
Hust - Getränkemarkt & Kneipe,52.47263869999999,13.3431947,N/A,"Rubensstraße 50, 12159 Berlin, Germany",bar
Liliput,52.4748733,13.3288197,N/A,"Bundesallee 135, 12161 Berlin, Germany",bar
Alte Ziegenweide Biergarten,52.46107190000001,13.3554908,N/A,"Priesterweg, 12157 Berlin, Germany",bar
Miteinander,52.4737412,13.3217647,N/A,"Taunusstraße 11, 12161 Berlin, Germany",bar
Sponholz Bar Pub,52.47532,13.3402573,N/A,"Hauptstraße 89, 12159 Berlin, Germany",bar
Zig Zag Jazz Club Berlin,52.47505829999999,13.3399194,N/A,"Hauptstraße 89, 12159 Berlin, Germany",night_club
Mona Roses | Bordell,52.4483384,13.3150149,N/A,"Hindenburgdamm 76, 12203 Berlin, Germany",night_club
Carlos Caravela,52.46731279999999,13.3314467,N/A,"Dickhardtstraße 27, 12161 Berlin, Germany",bar
Holland Mühle,52.4504446,13.3420774,N/A,"Steglitzer Damm 40, 12169 Berlin, Germany",bar
Outer Africa,52.4632353,13.3292165,N/A,"Feuerbachstraße 18a, 12163 Berlin, Germany",cafe
Schloßpark-Restaurant,52.456506,13.321126,N/A,"Steglitz Kreisel Turm, Albrechtstr. 2, 12165 Berlin, Germany",bar
Vino Weinmarkt,52.4538289,13.3289904,N/A,"Albrechtstr. 22, 12167 Berlin, Germany",bar
Albers Wettboerse GmbH,52.4578873,13.3241329,N/A,"Düppelstraße 35, 12163 Berlin, Germany",bar
Spinnrad - Berliner Kneipe,52.47178940000001,13.3192033,N/A,"Wiesbadener Str. 16, 14197 Berlin, Germany",bar
Jacques’ Wein-Depot Berlin-Friedenau,52.4677044,13.3285449,N/A,"U-Bahnhof Walther-Schreiber-Platz, Bundesallee 115, 12161 Berlin, Germany",grocery_or_supermarket
Rothenburg Eck in Edis,52.45956690000001,13.3195771,N/A,"Muthesiusstraße 16-18, 12163 Berlin, Germany",bar
Clandestine,52.453119,13.3204673,N/A,"Berlinickestraße, Eingang, Rugestraße 1a, 12165 Berlin, Germany",bar
Bar 55 Grad,52.4693102,13.3332939,N/A,"Rheinstraße 55, 12159 Berlin, Germany",bar
Halli Galli,52.4585197,13.3311208,N/A,"Menckenstraße, 12169 Berlin, Germany",bar
Amma | Berlin Steglitz,52.46376129999999,13.3310835,N/A,"Feuerbachstraße 31, 12163 Berlin, Germany",meal_takeaway
Golden Brown Café • Lounge • Foodbar • Eventlocation,52.4637371,13.3346978,N/A,"Schönhauser Str. 1, 12157 Berlin, Germany",cafe
Check In,52.45821799999999,13.3277984,N/A,"Bergstraße 92, 12169 Berlin, Germany",cafe
Brittas,52.4638113,13.3352889,N/A,"Lauenburger Str. 2, 12157 Berlin, Germany",bar
Stay Inn,52.4615124,13.3265061,N/A,"Florastraße 17, 12163 Berlin, Germany",bar
Xerima Shisha Lounge,52.4598317,13.3258862,N/A,"Hubertusstraße 6, 12163 Berlin, Germany",bar
Heinrichs Sportsbar,52.46146350000001,13.3397139,N/A,"Bismarckstraße 67, 12157 Berlin, Germany",bar
Hockeylounge,52.4558753,13.3352276,N/A,"Lessingstraße 5-8, 12169 Berlin, Germany",bar
Popup Lounge,52.4621676,13.3250474,N/A,"Steglitz-Zehlendorf, 12163 Berlin, Germany",bar
Steglitzer Glühweinpyramide,52.4643548,13.3273752,N/A,"Schloßstraße 1, 12163 Berlin, Germany",bar
Jack's,52.455666,13.3259852,N/A,"Heesestraße 2, 12169 Berlin, Germany",bar
Albrecht - Eck,52.45417479999999,13.3292351,N/A,"Albrechtstr. 108, 12167 Berlin, Germany",bar
Bar Caffe Osteria Dasilvio,52.4644337,13.3233383,N/A,"Markelstraße 52, 12163 Berlin, Germany",bar
Zum Lindenblatt,52.46602349999999,13.324237,N/A,"Bornstraße 9, 12163 Berlin, Germany",bar
Peter Pane,52.4576494,13.3209682,N/A,"Schloßstraße 34-37, 12163 Berlin, Germany",bar
"Kneipenkönig ""Zwei""",52.4661754,13.3230245,N/A,"Bornstraße 22, 12163 Berlin, Germany",bar
4angels bar,52.45485410000001,13.3225626,N/A,"Berlinickestraße 10, 12165 Berlin, Germany",bar
Zur Tulpe,52.4685052,13.3286906,N/A,"Bundesallee 119, 12161 Berlin, Germany",bar
Dohan GmbH,52.4688462,13.329173,N/A,"Handjerystraße 55, 12161 Berlin, Germany",bar
Kleiner Muck,52.4536038,13.3227184,N/A,"Schützenstraße 14, 12165 Berlin, Germany",bar
Berlinchen,52.4670275,13.3439905,N/A,"Rubensstraße 88, 12157 Berlin, Germany",bar
Hotel Steglitz International,52.45637869999999,13.3214237,N/A,"Steglitz Kreisel Turm, Albrechtstr. 2, 12165 Berlin, Germany",bar
Osteria Maria / Cremeria Maria,52.453227,13.3245278,N/A,"Leydenallee 79, 12167 Berlin, Germany",restaurant
Mai Phai,52.4631512,13.3289573,N/A,"Feuerbachstraße 16, 12163 Berlin, Germany",restaurant
Finnegan's Irish Pub,52.4580117,13.3294467,N/A,"Bergstraße 8, 12169 Berlin, Germany",bar
Sushi Club Steglitz Berlin,52.457088,13.322532,N/A,"Düppelstraße 41, 12163 Berlin, Germany",restaurant
Pizzeria La Luna,52.466885,13.3307498,N/A,"Rheinstraße 47, 12161 Berlin, Germany",meal_delivery
Breslauer Platz,52.472333,13.335502,N/A,"Niedstraße 1, 12159 Berlin, Germany",meal_takeaway
Nirwana,52.4542426,13.3173294,N/A,"Schloßstraße 48a, 12165 Berlin, Germany",restaurant
Mario,52.475082,13.323463,N/A,"Südwestkorso 10, 14197 Berlin, Germany",restaurant
Nikko Sushi,52.4706376,13.3203086,N/A,"Laubacher Str. 11, 14197 Berlin, Germany",restaurant
Restaurant Pastis,52.4725323,13.3147501,N/A,"Rüdesheimer Str. 9, 14197 Berlin, Germany",restaurant
Glutenfreie Bäckerei Konditorei Eis Voh,52.4683469,13.3286345,N/A,"Bundesallee 118, 12161 Berlin, Germany",bakery
Celtic Cottage,52.4645239,13.3238667,N/A,"Markelstraße 13, 12163 Berlin, Germany",bar
Trattoria Sicilia,52.4671505,13.341784,N/A,"Beckerstraße 5, 12157 Berlin, Germany",restaurant
Cremina,52.4717382,13.3202828,N/A,"Südwestkorso 60, 14197 Berlin, Germany",restaurant
Café le Paris,52.4555065,13.3251078,N/A,"Albrechtstr. 11, 12165 Berlin, Germany",cafe
Il Mio Gusto Mediterranes Restaurant,52.45119,13.3394,N/A,"Steglitzer Damm 19, 12169 Berlin, Germany",restaurant
"""Licht des Südens""",52.46731490000001,13.3423825,N/A,"Cranachstraße 53, 12157 Berlin, Germany",restaurant
Asia Time,52.4675802,13.3314779,N/A,"Rheinstraße 49, 12161 Berlin, Germany",restaurant
China Restaurant Sichuan,52.4522052,13.3338991,N/A,"Albrechtstr. 92, 12167 Berlin, Germany",restaurant
Asia Imbiss,52.45630449999999,13.3213688,N/A,"Steglitz Kreisel Turm, Kuhligkshofstraße 2, 12165 Berlin, Germany",meal_takeaway
UDAGAWA 宇田川,52.4633441,13.3299584,N/A,"Feuerbachstraße 24, 12163 Berlin, Germany",restaurant
Bab & Kimchi,52.4641306,13.3310981,N/A,"Schöneberger Str. 10, 12163 Berlin, Germany",restaurant
Gemüse Kebab Eat&Go,52.461927,13.339192,N/A,"Lauenburger Pl. 1, 12157 Berlin, Germany",meal_takeaway
Spalato,52.4602337,13.3397116,N/A,"Bismarckstraße 64B, 12169 Berlin, Germany",restaurant
Restaurant Split,52.4641961,13.3280599,N/A,"Schloßstraße 128, 12163 Berlin, Germany",restaurant
Mevlana,52.46333790000001,13.3387446,N/A,"Bismarckstraße 3, 12157 Berlin, Germany",restaurant
Falafel Baba,52.46027400000001,13.3246094,N/A,"Schloßstraße 106, 12163 Berlin, Germany",restaurant
Mare e Monti,52.46351259999999,13.3387814,N/A,"Bismarckstraße 3, 12157 Berlin, Germany",bakery
Michl's,52.46544590000001,13.3307159,N/A,"Peschkestraße 18, 12161 Berlin, Germany",restaurant
Akiko Sushi,52.46047759999999,13.323253,N/A,"Ahornstraße 32, 12163 Berlin, Germany",meal_takeaway
ViChin Gourmet,52.4653269,13.3278643,N/A,"Schloss Straßen Center (Untergeschoss), Walther-Schreiber-Platz 1, Walther-Schreiber-Platz 1, 12161 Berlin, Germany",restaurant
Kisso,52.4660684,13.3299164,N/A,"Rheinstraße 44, 12161 Berlin, Germany",restaurant
Manhattan Pizza Steglitz,52.4548843,13.3275684,N/A,"Albrechtstr. 114, 12167 Berlin, Germany",meal_delivery
Fanous,52.4573881,13.3233827,N/A,"Düppelstraße 38, 12163 Berlin, Germany",restaurant
EDO-SUSHI,52.46662430000001,13.3298119,N/A,"Rheinstraße 32, 12161 Berlin, Germany",restaurant
Lino Pizza - Pizza - Pasta - Steglitz - Berlin,52.46671869999999,13.32994,N/A,"Rheinstraße 32-33, 12161 Berlin, Germany",restaurant
Don Peppino,52.4560511,13.3236372,N/A,"Berlinickestraße 16a, 12165 Berlin, Germany",restaurant
Café CoCosh,52.45908149999999,13.3207616,N/A,"Muthesiusstraße 8, 12163 Berlin, Germany",cafe
Taverna Pigasos,52.46670580000001,13.3388742,N/A,"Beckerstraße 15, 12157 Berlin, Germany",restaurant
Pizzeria Atila,52.46786869999999,13.33108,N/A,"Rheinstraße 26, 12161 Berlin, Germany",restaurant
Köller & Stolle Hotel GmbH & Co. KG,52.4565218,13.3212497,N/A,"Steglitz Kreisel Turm, Albrechtstr. 2, 12165 Berlin, Germany",lodging
Al Teatro,52.45786689999999,13.3202418,N/A,"Schloßstraße 34, 12163 Berlin, Germany",cafe
Zaka Sushi Steglitz,52.45303000000001,13.33822,N/A,"Bismarckstraße 32, 12169 Berlin, Germany",meal_takeaway
BACK-FACTORY,52.45684480000001,13.3200241,N/A,"Schloßstraße 38-40, 12165 Berlin, Germany",bakery
vanille & marille,52.4539606,13.3233539,N/A,"Leydenallee 92, 12165 Berlin, Germany",restaurant
TRATTORIA IL MERGELLINA,52.46302069999999,13.3191636,N/A,"Lepsiusstraße 36, 12163 Berlin, Germany",restaurant
General Post Office (GPO),52.4612554,13.3181885,N/A,"Zimmermannstraße 22, 12163 Berlin, Germany",bar
TERRA VERDE Landkost aus Sizilien,52.4692812,13.332619,N/A,"Rheinstraße 18, 12159 Berlin, Germany",grocery_or_supermarket
Taverna Nostalgia,52.4681692,13.3248785,N/A,"Odenwaldstraße 7, 12161 Berlin, Germany",restaurant
Sairan - Oriental Specialties - Berlin,52.4674601,13.3419661,N/A,"Cranachstraße 11, 12157 Berlin, Germany",restaurant
"Eiswagen, Eisfahrrad, Eisverkaufer, Eismachine, Eisverkauf MIETEN für Events/Hochzeiten",52.4693777,13.3301918,N/A,"Handjerystraße 48, 12161 Berlin, Germany",restaurant
Jungbluth,52.4603577,13.3172908,N/A,"Lepsiusstraße 63, 12163 Berlin, Germany",restaurant
Avtaar,52.46008879999999,13.3171226,N/A,"Lepsiusstraße 69, 12163 Berlin, Germany",restaurant
Statement The Kitchen,52.4701838,13.3342745,N/A,"Rheinstraße 60, 12159 Berlin, Germany",bar
Elias Gyrosland,52.4512307,13.3384063,N/A,"Bismarckstraße 45, 12169 Berlin, Germany",restaurant
Café Frau Maus,52.46832559999999,13.3218366,N/A,"Rheingaustraße 4, 12161 Berlin, Germany",restaurant
Restaurant Duo,52.451048,13.341121,N/A,"Steglitzer Damm 29, 12169 Berlin, Germany",restaurant
Cafe & Restaurant Sonnenschein,52.471327,13.333718,N/A,"Schmargendorfer Str. 33, 12159 Berlin, Germany",cafe
New Yak & Yeti Nepalesisches Restaurant,52.4697226,13.3436484,N/A,"Rubensstraße 66, 12157 Berlin, Germany",restaurant
Leonardo Royal Hotel Berlin Alexanderplatz,52.52739139999999,13.4233692,N/A,"Otto-Braun-Straße 90, 10249 Berlin, Germany",lodging
Gugelhof,52.53545010000001,13.4166599,N/A,"Knaackstraße 37, 10435 Berlin, Germany",restaurant
Prater Beer Garden,52.540099,13.4097855,N/A,"Kastanienallee 7-9, 10435 Berlin, Germany",bar
Fleischerei,52.5297856,13.4105204,N/A,"Schönhauser Allee 8, 10119 Berlin, Germany",restaurant
An einem Sonntag im August,52.53996309999999,13.4115024,N/A,"Kastanienallee 103, 10435 Berlin, Germany",bar
Wohnzimmerbar,52.5434719,13.4192195,N/A,"Lettestraße 6, 10437 Berlin, Germany",bar
Villa Rodizio,52.54546579999999,13.4114636,N/A,"Milastraße 2, 10437 Berlin, Germany",bar
Belushi's Berlin (Alexanderplatz),52.52690250000001,13.4106901,N/A,"Rosa-Luxemburg-Straße 41, 10178 Berlin, Germany",bar
QADMOUS - Libanesisches Restaurant Berlin,52.529724,13.4363696,N/A,"Am Friedrichshain 1, 10407 Berlin, Germany",bar
Trattoria Felice,52.5439491,13.4175574,N/A,"Lychener Str. 41, 10437 Berlin, Germany",cafe
Zu mir oder zu dir,52.5419644,13.4153325,N/A,"Lychener Str. 15, 10437 Berlin, Germany",bar
X-Bar,52.5415573,13.4218145,N/A,"Raumerstraße 17A, 10437 Berlin, Germany",bar
Red Salon (Roter Salon),52.5271099,13.4115815,N/A,"Rosa-Luxemburg-Platz, 10178 Berlin, Germany",night_club
Bar/Kneipe Trauerspiel,52.5451972,13.411955,N/A,"Milastraße 7, 10437 Berlin, Germany",bar
Girasol,52.5416184,13.4232305,N/A,"Raumerstraße 30, 10437 Berlin, Germany",cafe
FRANNZ Club,52.53817160000001,13.4126258,N/A,"Schönhauser Allee 36, 10435 Berlin, Germany",night_club
Aapka,52.5339958,13.4047851,N/A,"Kastanienallee 50, 10119 Berlin, Germany",cafe
Mauersegler Berlin,52.5405764,13.4032308,N/A,"Bernauer Str. 63-64, 13355 Berlin, Germany",bar
Nemo,52.53910459999999,13.4077388,N/A,"Oderberger Str. 46, 10435 Berlin, Germany",bar
Sorsi e Morsi,52.534501,13.4248537,N/A,"Marienburger Str. 10, 10405 Berlin, Germany",bar
Bar 55,52.5350833,13.4162932,N/A,"Kollwitzstraße 55, 10405 Berlin, Germany",bar
Pool und Cigars,52.53970469999999,13.4143231,N/A,"Schönhauser Allee 36, 10435 Berlin, Germany",bar
8MM,52.53121799999999,13.411524,N/A,"Schönhauser Allee 177b, 10119 Berlin, Germany",bar
ZAZA Diner & Drinks,52.53912809999999,13.4100321,N/A,"Kastanienallee 12, 10435 Berlin, Germany",bar
Saphire Bar,52.53183929999999,13.4341137,N/A,"Bötzowstraße 31, 10407 Berlin, Germany",bar
Alte Kantine,52.5395694,13.4136898,N/A,"Knaackstraße 97, 10435 Berlin, Germany",night_club
Restaurant Schoenbrunn,52.5280125,13.433992,N/A,"AM SCHWANENTEICH IN VOLKSPARK, 10249 Berlin, Germany",bar
Yard,52.53557559999999,13.420074,N/A,"Rykestraße 8, 10405 Berlin, Germany",bar
Jacques’ Wein-Depot Berlin-Prenzlauer Berg,52.5351639,13.4163689,N/A,"Kollwitzstraße 55, 10405 Berlin, Germany",liquor_store
Misirlou Bar,52.54237509999999,13.4209873,N/A,"Dunckerstraße 10, 10437 Berlin, Germany",cafe
Neue Odessa Bar,52.5297031,13.4057467,N/A,"Torstraße 89, 10119 Berlin, Germany",bar
Liebling - Café & Bar,52.5421119,13.4206695,N/A,"Raumerstraße 36A, 10437 Berlin, Germany",bar
Bar Becketts Kopf,52.5455885,13.4168726,N/A,"Pappelallee 64, 10437 Berlin, Germany",bar
August Fengler,52.5417116,13.4150089,N/A,"Lychener Str. 11, 10437 Berlin, Germany",bar
FC Magnet Bar,52.5329778,13.3999833,N/A,"Veteranenstraße 26, 10119 Berlin, Germany",bar
Kapelle,52.5346925,13.4027925,N/A,"Zionskirchstraße 22-24, 10119 Berlin, Germany",bar
Bar 3,52.5269645,13.4146543,N/A,"Weydingerstraße 20, 10178 Berlin, Germany",bar
Mein Haus am See,52.5299428,13.4007965,N/A,"Brunnenstraße 197-198, 10119 Berlin, Germany",bar
House of Weekend,52.52293520000001,13.4163463,N/A,"Alexanderstraße 7, 10178 Berlin, Germany",night_club
Gaststätte W. Prassnik,52.52926790000001,13.4081325,N/A,"Torstraße 65, 10119 Berlin, Germany",bar
Al Hamra,52.5417705,13.4209741,N/A,"Raumerstraße 16, 10437 Berlin, Germany",restaurant
Café / Bar Marienhof,52.53477059999999,13.4239597,N/A,"Marienburger Str. 7, 10405 Berlin, Germany",bar
Café Krone,52.53974400000001,13.406048,N/A,"Oderberger Str. 38, 10435 Berlin, Germany",cafe
Pfefferberg,52.5315638,13.4117398,N/A,"Schönhauser Allee 176, 10119 Berlin, Germany",bar
Muret La Barba,52.52751920000001,13.4034784,N/A,"Rosenthaler Str. 61, 10119 Berlin, Germany",liquor_store
Kitty Cheng Bar,52.53001,13.40432,N/A,"Torstraße 99, 10119 Berlin, Germany",bar
Bornholmer Hütte,52.5535261,13.41183259999999,N/A,"Bornholmer Str. 89, 10439 Berlin, Germany",bar
hausbar.,52.5348953,13.4190434,N/A,"Rykestraße 54, 10405 Berlin, Germany",bar
ROBERTA-Bar,52.5356089,13.4012245,N/A,"Zionskirchstraße 7, 10119 Berlin, Germany",bar
Schurkenkeller,52.5327186,13.4101788,N/A,"Christinenstraße 28, 10119 Berlin, Germany",bar
Sportsbar Tor 133,52.52973240000001,13.3997225,N/A,"Torstraße 133, 10119 Berlin, Germany",casino
City Studio in Mitte,52.5406864,13.4055011,N/A,"Eberswalder Str. 2, 10435 Berlin, Germany",bar
Mary Jane Bar,52.5376941,13.4084576,N/A,"Kastanienallee 24, 10435 Berlin, Germany",bar
Yolanda,52.5419917,13.4227913,N/A,"Senefelderstraße 27, 10437 Berlin, Germany",bar
Café Chagall,52.53135899999999,13.4126623,N/A,"Kollwitzstraße 2, 10405 Berlin, Germany",bar
Rhabarber,52.5392906,13.4217519,N/A,"Danziger Str. 58, 10435 Berlin, Germany",bar
Bar Luxus,52.5387291,13.4234874,N/A,"Prenzlauer Allee 197, 10405 Berlin, Germany",bar
Birra - Italian Craft Beer,52.53861910000001,13.4234473,N/A,"Prenzlauer Allee 198, 10405 Berlin, Germany",bar
Mokum,52.5393657,13.4209626,N/A,"Danziger Str. 56, 10435 Berlin, Germany",bar
BRYK BAR,52.5375945,13.4224222,N/A,"Sredzkistraße 65, 10405 Berlin, Germany",bar
Leonardo Royal Hotel Berlin Alexanderplatz,52.52739139999999,13.4233692,N/A,"Otto-Braun-Straße 90, 10249 Berlin, Germany",lodging
Sasaya,52.5443009,13.4185897,N/A,"Lychener Str. 50, 10437 Berlin, Germany",restaurant
The Bird,52.5466504,13.4058208,N/A,"Am Falkpl. 5, 10437 Berlin, Germany",restaurant
Gugelhof,52.53545010000001,13.4166599,N/A,"Knaackstraße 37, 10435 Berlin, Germany",restaurant
Prater Beer Garden,52.540099,13.4097855,N/A,"Kastanienallee 7-9, 10435 Berlin, Germany",restaurant
Mamay - vietnamesische Küche,52.54554290000002,13.4133056,N/A,"Schönhauser Allee 61, 10437 Berlin, Germany",restaurant
Café Anna Blume,52.5380566,13.4195398,N/A,"Kollwitzstraße 83, 10435 Berlin, Germany",cafe
Fleischerei,52.5297856,13.4105204,N/A,"Schönhauser Allee 8, 10119 Berlin, Germany",restaurant
Meena Kumari,52.54150550000001,13.4148501,N/A,"Lychener Str. 9, 10437 Berlin, Germany",restaurant
An einem Sonntag im August,52.53996309999999,13.4115024,N/A,"Kastanienallee 103, 10435 Berlin, Germany",bar
Wohnzimmerbar,52.5434719,13.4192195,N/A,"Lettestraße 6, 10437 Berlin, Germany",bar
Hofbräu Wirtshaus Berlin,52.52456240000001,13.4138463,N/A,"Karl-Liebknecht-Str. 30, 10178 Berlin, Germany",restaurant
Villa Rodizio,52.54546579999999,13.4114636,N/A,"Milastraße 2, 10437 Berlin, Germany",restaurant
Zaika,52.5480556,13.4227778,N/A,"Wichertstraße 57, 10439 Berlin, Germany",restaurant
Belushi's Berlin (Alexanderplatz),52.52690250000001,13.4106901,N/A,"Rosa-Luxemburg-Straße 41, 10178 Berlin, Germany",restaurant
QADMOUS - Libanesisches Restaurant Berlin,52.529724,13.4363696,N/A,"Am Friedrichshain 1, 10407 Berlin, Germany",restaurant
Monsieur Vuong,52.5266538,13.4079523,N/A,"Alte Schönhauser Str. 46, 10119 Berlin, Germany",restaurant
I due forni,52.5308535,13.4125762,N/A,"Schönhauser Allee 12, 10119 Berlin, Germany",restaurant
Cenacolo,52.5386,13.4160201,N/A,"Sredzkistraße 23, 10435 Berlin, Germany",restaurant
Trattoria Felice,52.5439491,13.4175574,N/A,"Lychener Str. 41, 10437 Berlin, Germany",cafe
Good Morning Vietnam,52.52833400000001,13.4094026,N/A,"Alte Schönhauser Str. 60, 10119 Berlin, Germany",restaurant
MarienBurgerie,52.5353757,13.4233987,N/A,"Marienburger Str. 47, 10405 Berlin, Germany",meal_takeaway
Girasol,52.5416184,13.4232305,N/A,"Raumerstraße 30, 10437 Berlin, Germany",cafe
Dark Restaurant Berlin,52.5286434,13.415533,N/A,"Saarbrücker Str. 36-38, 10405 Berlin, Germany",restaurant
Les Valseuses Restaurant,52.54129489999999,13.4108581,N/A,"Eberswalder Str. 28, 10437 Berlin, Germany",restaurant
Il Pane e le Rose,52.5294474,13.4344259,N/A,"Am Friedrichshain 6, 10407 Berlin, Germany",restaurant
FRANNZ Club,52.53817160000001,13.4126258,N/A,"Schönhauser Allee 36, 10435 Berlin, Germany",night_club
Café Datscha Mitte,52.5305237,13.401652,N/A,"Weinbergsweg 25, 10119 Berlin, Germany",restaurant
Soda Restaurant,52.5383047,13.4127573,N/A,"Schönhauser Allee 36, 10435 Berlin, Germany",restaurant
Aapka,52.5339958,13.4047851,N/A,"Kastanienallee 50, 10119 Berlin, Germany",meal_takeaway
Bangkok Treffpunkt,52.53676499999999,13.423308,N/A,"Prenzlauer Allee 46, 10405 Berlin, Germany",restaurant
Onkel Ho,52.5469255,13.4060401,N/A,"Gleimstraße 10A, 10437 Berlin, Germany",restaurant
YamYam Berlin,52.5275836,13.4082387,N/A,"Alte Schönhauser Str. 6, 10119 Berlin, Germany",restaurant
Juki,52.54180660000001,13.415153,N/A,"Lychener Str. 13, 10437 Berlin, Germany",restaurant
Mauersegler Berlin,52.5405764,13.4032308,N/A,"Bernauer Str. 63-64, 13355 Berlin, Germany",bar
Werkstatt der Süße,52.5391185,13.4176004,N/A,"Husemannstraße 25, 10435 Berlin, Germany",bakery
Trattoria Toscana,52.53835389999999,13.4195346,N/A,"Sredzkistraße 49, 10435 Berlin, Germany",restaurant
Asuka-Sushi,52.5474204,13.4120892,N/A,"Gleimstraße 27, 10437 Berlin, Germany",restaurant
Thüringer Stuben,52.544384,13.4227311,N/A,"Stargarder Str. 28, 10437 Berlin, Germany",restaurant
Steakhouse Las Malvinas,52.5262646,13.4225402,N/A,"Barnimstraße 18, 10249 Berlin, Germany",restaurant
Papa Nô – Prenzlauer Berg,52.54086849999999,13.4152909,N/A,"Danziger Str. 11, 10435 Berlin, Germany",restaurant
Mami Camilla Pizzeria,52.5305674,13.4344555,N/A,"Hufelandstraße 36, 10407 Berlin, Germany",meal_delivery
Lucky Leek,52.53485850000001,13.4167656,N/A,"Kollwitzstraße 54, 10405 Berlin, Germany",restaurant
ZAZA Diner & Drinks,52.53912809999999,13.4100321,N/A,"Kastanienallee 12, 10435 Berlin, Germany",bar
Zia Maria - Pizzeria,52.5458621,13.4178782,N/A,"Pappelallee 32A, 10437 Berlin, Germany",restaurant
Zum Schusterjungen,52.5409194,13.4141972,N/A,"Danziger Str. 9, 10435 Berlin, Germany",restaurant
Oderquelle,52.5401288,13.4060656,N/A,"Oderberger Str. 27, 10435 Berlin, Germany",restaurant
GOA II,52.5471331,13.4089756,N/A,"Gleimstraße 18, 10437 Berlin, Germany",restaurant
Taleh Thai,52.53048799999999,13.4315041,N/A,"Käthe-Niederkirchner-Straße 14, 10407 Berlin, Germany",restaurant
Zula Restaurant,52.53756620000001,13.4177557,N/A,"Husemannstraße 10, 10435 Berlin, Germany",restaurant
Aromi e Sapori - Restaurant & Weinbar,52.53247270000001,13.4172129,N/A,"Straßburger Str. 29, 10405 Berlin, Germany",liquor_store
Restaurant Schoenbrunn,52.5280125,13.433992,N/A,"AM SCHWANENTEICH IN VOLKSPARK, 10249 Berlin, Germany",bar
Asia Dream,52.5452029,13.4280248,N/A,"Prenzlauer Allee 89, 10405 Berlin, Germany",restaurant
La Muse Gueule,52.5380868,13.4144916,N/A,"Sredzkistraße 14, 10435 Berlin, Germany",restaurant
Liebling - Café & Bar,52.5421119,13.4206695,N/A,"Raumerstraße 36A, 10437 Berlin, Germany",bar
Gasthaus Alt Wien,52.53148669999999,13.4325518,N/A,"Hufelandstraße 22, 10407 Berlin, Germany",restaurant
Wok Show,52.5519534,13.4192568,N/A,"Greifenhagener Str. 31, 10437 Berlin, Germany",restaurant
W The Imbiss,52.5342789,13.4051218,N/A,"Kastanienallee 49, 10119 Berlin, Germany",meal_takeaway
Red Dragon,52.54047610000001,13.4176443,N/A,"Danziger Str. 29, 10435 Berlin, Germany",restaurant
No Fire No Glory,52.5366659,13.4204562,N/A,"Rykestraße 45, 10405 Berlin, Germany",cafe
REDO XXL Berlin,52.45458669999999,13.3848178,N/A,"Tempelhofer Damm 227, 12099 Berlin, Germany",restaurant
Hanniball Billardsportcenter,52.4554029,13.3852077,N/A,"Tempelhofer Damm 227, 12099 Berlin, Germany",cafe
Rebart Cafe Bar,52.4355334,13.3896807,N/A,"Mariendorfer Damm 185, 12107 Berlin, Germany",bar
Remise No1 by Dos Pescados,52.4444986,13.3854179,N/A,"Mariendorfer Damm 90, 12109 Berlin, Germany",restaurant
Traber Terrassen,52.4317575,13.39188,N/A,"Mariendorfer Damm 221, 12107 Berlin, Germany",bar
the BurgerBar,52.45486810000001,13.3847133,N/A,"Tempelhofer Damm 227, 12099 Berlin, Germany",bar
Alte Liebe Tempelhof,52.45542080000001,13.3872472,N/A,"Tempelhofer Damm 227, 12099 Berlin, Germany",bar
Brotmaus,52.4258767,13.4016292,N/A,"Tauernallee 40, 12107 Berlin, Germany",bar
Diamond Lounge,52.4559712,13.3835212,N/A,"Tempelhofer Damm 224, 12099 Berlin, Germany",cafe
Guter Wille Pascham,52.44604959999999,13.4164253,N/A,"Kol.Guter Wille 1, 12347 Berlin, Germany",bar
Aaina | Indisches Restaurant Tempelhof | Cocktailbar Berlin,52.4568526,13.3835245,N/A,"Tempelhofer Damm 216, 12099 Berlin, Germany",bar
Restaurant Adlermühle Berlin,52.4246868,13.3947603,N/A,"Mariendorfer Damm 320, 12107 Berlin, Germany",bar
Selfie Lounge,52.4554683,13.3759902,N/A,"Attilastraße 175, 12105 Berlin, Germany",cafe
"Mustang Restaurant, Cafe & Cocktailbar | Italienische Spezialitäten & Steakhaus",52.42595669999999,13.392704,N/A,"Mariendorfer Damm 296, 12107 Berlin, Germany",bar
Zum Sargnagel,52.43953799999999,13.3880337,N/A,"Mariendorfer Damm 137, 12107 Berlin, Germany",bar
Gersdorf Klause,52.4451687,13.3735626,N/A,"Gersdorfstraße 60, 12105 Berlin, Germany",bar
Amma Berlin,52.45718599999999,13.3837382,N/A,"Tempelhofer Damm 214, 12099 Berlin, Germany",meal_takeaway
Laola,52.4404776,13.3877005,N/A,"12109 Berlin, Germany",bar
Mundo Tapas Bar Restaurant Berlin,52.44048950000001,13.3875476,N/A,"Alt-Mariendorf 32, 12107 Berlin, Germany",meal_takeaway
laolasportsbarberlin,52.44051499999999,13.3874742,N/A,"Alt-Mariendorf 32, 12109 Berlin, Germany",bar
Lost Soul Pub,52.43881140000001,13.3885462,N/A,"Reißeckstraße 4, 12107 Berlin, Germany",bar
kellerROCKbar,52.4390251,13.3866607,N/A,"Friedenstraße 20, 12107 Berlin, Germany",bar
Alte Dorfschänke,52.44016970000001,13.3857751,N/A,"Alt-Mariendorf 42, 12107 Berlin, Germany",bar
Sky Sportsbar Ducky's Kneipe,52.4422673,13.3862458,N/A,"Mariendorfer Damm 112, 12109 Berlin, Germany",bar
Cafe' Bar Cosmos,52.44316009999999,13.3859577,N/A,"Mariendorfer Damm 102, 12109 Berlin, Germany",bar
Weltkugel Lounge,52.4437378,13.3863668,N/A,"Mariendorfer Damm 101, 12109 Berlin, Germany",bar
Papillon,52.4433107,13.3853358,N/A,"Prühßstraße 48-50, 12105 Berlin, Germany",bar
Gaststätte Bierstübl,52.4450176,13.3855875,N/A,"Mariendorfer Damm 86, 12109 Berlin, Germany",bar
Xtip Sportwetten,52.44823910000001,13.3848948,N/A,"Mariendorfer Damm 50-52, 12109 Berlin, Germany",bar
Café & Cocktailbar L-Cino,52.44823910000001,13.3848948,N/A,"Mariendorfer Damm 50, 12109 Berlin, Germany",bar
Boztepe Bar,52.44854160000001,13.3854328,N/A,"12109 Berlin, Germany",bar
Perişanlar Diyari,52.44863059999999,13.3854091,N/A,"12109 Berlin, Germany",bar
Gaststätte Hasi,52.448992,13.3823673,N/A,"Strelitzstraße 1, 12105 Berlin, Germany",bar
Vereinsheim Fröhliche Eintracht e.V.,52.4513817,13.3997946,N/A,"Kol.Fröhliche Eintracht 80, 12109 Berlin, Germany",bar
Gaststätte Zur Ecke,52.4475551,13.3743976,N/A,"Kurfürstenstraße 24, 12105 Berlin, Germany",bar
Donnerwetter,52.4453128,13.4117061,N/A,"Plautusstraße 1, 12109 Berlin, Germany",bar
Tolly´s Bar,52.4472554,13.3716433,N/A,"Kurfürstenstraße 14, 12105 Berlin, Germany",bar
BrewDog DogTap Berlin,52.43805769999999,13.3682444,N/A,"Im Marienpark 23, 12107 Berlin, Germany",liquor_store
iLand,52.4544065,13.3855859,N/A,"Tempelhofer Damm 227, 12099 Berlin, Germany",bar
Kleekönig,52.4509644,13.4085265,N/A,"Rixdorfer Str. 31-89, 12109 Berlin, Germany",bar
Cafê-Restaurant Rudi & Rosa,52.4546886,13.3819068,N/A,"Viktoriastraße 10-18, 12105 Berlin, Germany",restaurant
Stübchen Am Hafen,52.4554139,13.3837499,N/A,"12105 Berlin, Germany",bar
Otti's Treffpunkt,52.42755529999999,13.405574,N/A,"Ankogelweg 3, 12107 Berlin, Germany",bar
Zur Linde Marienglück,52.4480106,13.4137361,N/A,"Pflaumenallee, 12109 Berlin, Germany",bar
Backen & Mehr Gastro,52.4560703,13.3862256,N/A,"Tempelhofer Damm 227, 12099 Berlin, Germany",bar
Fliegenpils,52.45603510000001,13.3824586,N/A,"Friedrich-Karl-Straße 8, 12103 Berlin, Germany",bar
Erdals Bierstube,52.4558182,13.3807207,N/A,"Friedrich-Karl-Straße 17, 12103 Berlin, Germany",bar
NiNETY - FOUR 94,52.436211,13.36431,N/A,"Alt-Lankwitz 94, 12247 Berlin, Germany",bar
Flair,52.4547968,13.3764309,N/A,"Alarichstraße 21, 12105 Berlin, Germany",bar
Die kleine Kneipe,52.4366673,13.3634475,N/A,"Alt-Lankwitz 87, 12247 Berlin, Germany",bar
Hattrick Sportwetten Tipico,52.45737879999999,13.3838045,N/A,"Tempelhofer Damm 212, 12099 Berlin, Germany",bar
REDO XXL Berlin,52.45458669999999,13.3848178,N/A,"Tempelhofer Damm 227, 12099 Berlin, Germany",restaurant
Pizza Max Berlin Tempelhof,52.45570069999999,13.3826799,N/A,"Friedrich-Karl-Straße 5, 12103 Berlin, Germany",meal_delivery
Kentucky Fried Chicken,52.426804,13.3934544,N/A,"Mariendorfer Damm 292, 12107 Berlin, Germany",restaurant
Ristorante Pizzeria Michelangelo,52.4470361,13.4017191,N/A,"Rixdorfer Str. 86, 12109 Berlin, Germany",restaurant
Bäckerei & Konditorei Schäfers (Thürmann),52.44542119999999,13.3797758,N/A,"Rathausstraße 77-79, 12105 Berlin, Germany",bakery
Döner & Burger House,52.43970419999999,13.3878934,N/A,"Mariendorfer Damm 133, 12107 Berlin, Germany",restaurant
Hazienda,52.4385384,13.3873206,N/A,"Mariendorfer Damm 144, 12107 Berlin, Germany",restaurant
Tandoori Nawab,52.44337849999999,13.3859668,N/A,"Mariendorfer Damm 100, 12109 Berlin, Germany",meal_takeaway
By Miran's,52.4436869,13.386413,N/A,"Mariendorfer Damm 101, 12109 Berlin, Germany",meal_takeaway
Rebart Cafe Bar,52.4355334,13.3896807,N/A,"Mariendorfer Damm 185, 12107 Berlin, Germany",bar
Remise No1 by Dos Pescados,52.4444986,13.3854179,N/A,"Mariendorfer Damm 90, 12109 Berlin, Germany",restaurant
Curry Kiste,52.44575949999999,13.3863617,N/A,"Westphalweg 41, 12109 Berlin, Germany",meal_takeaway
Burger Hütte Berlin,52.4472529,13.3857327,N/A,"Mariendorfer Damm 61, 12109 Berlin, Germany",meal_takeaway
Shell,52.43348899999999,13.3772462,N/A,"Großbeerenstraße 82-88, 12107 Berlin, Germany",gas_station
Allianz Casino,52.4335823,13.4050503,N/A,"Wildspitzweg 12-48, 12107 Berlin, Germany",restaurant
Imbiss Tang,52.45237720000001,13.3851744,N/A,"Mariendorfer Damm 5, 12109 Berlin, Germany",restaurant
Grillbar Imbiss,52.4306308,13.378385,N/A,"Großbeerenstraße 133, 12107 Berlin, Germany",meal_takeaway
Heymann Service e.K.,52.4551699,13.3948883,N/A,"Colditzstraße 34, 12099 Berlin, Germany",restaurant
the BurgerBar,52.45486810000001,13.3847133,N/A,"Tempelhofer Damm 227, 12099 Berlin, Germany",bar
Fischrestaurant Marti,52.4550962,13.3852855,N/A,"Fischrestaurant Marti, Tempelhofer Damm 227, 12099 Berlin, Germany",restaurant
Asia Food Ha Linh,52.45527509999999,13.3844375,N/A,"Tempelhofer Damm 227, 12099 Berlin, Germany",restaurant
Libanon Snack,52.4561327,13.3836645,N/A,"Tempelhofer Damm 222, 12099 Berlin, Germany",restaurant
Guter Wille Pascham,52.44604959999999,13.4164253,N/A,"Kol.Guter Wille 1, 12347 Berlin, Germany",bar
Rose Grillhaus,52.45587239999999,13.3805193,N/A,"Friedrich-Karl-Straße 17, 12103 Berlin, Germany",meal_takeaway
Karma Restaurant,52.4473703,13.3969435,N/A,"Eisenacher Str. 57, 12109 Berlin, Germany",restaurant
Restaurant Split,52.44650619999999,13.4021977,N/A,"Rixdorfer Str. 89, 12109 Berlin, Germany",restaurant
Pizzeria Gatto Nero,52.45264459999999,13.3712604,N/A,"Attilastraße 20, 12105 Berlin, Germany",restaurant
Aaina | Indisches Restaurant Tempelhof | Cocktailbar Berlin,52.4568526,13.3835245,N/A,"Tempelhofer Damm 216, 12099 Berlin, Germany",bar
Restaurant Adlermühle Berlin,52.4246868,13.3947603,N/A,"Mariendorfer Damm 320, 12107 Berlin, Germany",bar
China Snack,52.4386111,13.3830556,N/A,"Forddamm 7-9, 12107 Berlin, Germany",meal_takeaway
Park-Café,52.4404542,13.3963704,N/A,"Rixdorfer Str. 165, 12109 Berlin, Germany",cafe
Bei Radi,52.4458355,13.3899915,N/A,"Westphalweg 28, 12109 Berlin, Germany",restaurant
The Sixties Diner - Mariendorf,52.4233863,13.3956922,N/A,"Mariendorfer Damm 338, 12107 Berlin, Germany",restaurant
McDonald's,52.4373798,13.3796943,N/A,"Großbeerenstraße 22, 12107 Berlin, Germany",restaurant
Pizzeria Roma,52.44484749999999,13.3745712,N/A,"Gersdorfstraße 65, 12105 Berlin, Germany",restaurant
Villa Christina,52.4399869,13.3879208,N/A,"Mariendorfer Damm 131, 12107 Berlin, Germany",meal_delivery
Selfie Lounge,52.4554683,13.3759902,N/A,"Attilastraße 175, 12105 Berlin, Germany",bar
"Mustang Restaurant, Cafe & Cocktailbar | Italienische Spezialitäten & Steakhaus",52.42595669999999,13.392704,N/A,"Mariendorfer Damm 296, 12107 Berlin, Germany",bar
Tiamo Lieferservice Berlin,52.44572,13.38421,N/A,"Kaiserstraße 112, 12105 Berlin, Germany",meal_delivery
Domino's Pizza Berlin Tempelhof,52.4578105,13.3838158,N/A,"Tempelhofer Damm 206, 12099 Berlin, Germany",restaurant
Preußen-Quelle,52.45793010000001,13.3855042,N/A,"Friedrich-Wilhelm-Straße 85, 12099 Berlin, Germany",restaurant
Seestar of Britz,52.4356053,13.4156545,N/A,"Mohriner Allee 145, 12347 Berlin, Germany",cafe
Aristoteles,52.4466438,13.3790398,N/A,"Königstraße 44, 12105 Berlin, Germany",restaurant
rice & more,52.4345942,13.3785393,N/A,"Großbeerenstraße 51, 12107 Berlin, Germany",restaurant
Cancún Mariendorf,52.4255253,13.3945119,N/A,"Mariendorfer Damm 310, 12107 Berlin, Germany",restaurant
Domino's Pizza,52.4435019,13.386572,N/A,"Mariendorfer Damm 103, 12109 Berlin, Germany",restaurant
Zum Sargnagel,52.43953799999999,13.3880337,N/A,"Mariendorfer Damm 137, 12107 Berlin, Germany",bar
Amma Berlin,52.45718599999999,13.3837382,N/A,"Tempelhofer Damm 214, 12099 Berlin, Germany",meal_takeaway
Streetfood Burger & Döner House,52.4405248,13.3880706,N/A,"Alt-Mariendorf 30, 12107 Berlin, Germany",restaurant
Bernie's Curry,52.4392622,13.3884732,N/A,"Reißeckstraße 1, 12107 Berlin, Germany",meal_takeaway
Gemüse Kebap,52.4390474,13.3886758,N/A,"Reißeckstraße 4, 12107 Berlin, Germany",meal_takeaway
Mundo Tapas Bar Restaurant Berlin,52.44048950000001,13.3875476,N/A,"Alt-Mariendorf 32, 12107 Berlin, Germany",meal_takeaway
HAMI,52.4388319,13.3884916,N/A,"Reißeckstraße 2-4, 12107 Berlin, Germany",restaurant
Arona Mini Pizza,52.43893309999999,13.3880723,N/A,"Reißeckstraße 2Y U-Bhf Alt, 12107 Berlin, Germany",restaurant
SAMUI fine asian food,52.4390239,13.3876914,N/A,"Alt-Mariendorf 137, 12107 Berlin, Germany",meal_takeaway
Alte Dorfschänke,52.44016970000001,13.3857751,N/A,"Alt-Mariendorf 42, 12107 Berlin, Germany",bar
Sky Sportsbar Ducky's Kneipe,52.4422673,13.3862458,N/A,"Mariendorfer Damm 112, 12109 Berlin, Germany",bar
Cruncho Cheeseo,52.44251609999999,13.3861117,N/A,"Mariendorfer Damm 110, 12109 Berlin, Germany",meal_takeaway
Villa Lakerda,52.4395384,13.3847797,N/A,"Alt-Mariendorf 45, 12107 Berlin, Germany",restaurant
21 Dönerhaus Kebaphaus Pizzahaus,52.4434554,13.3865803,N/A,"Mariendorfer Damm 103, 12109 Berlin, Germany",meal_takeaway
